"STATION","DATE","REPORT_TYPE","SOURCE","AWND","BackupDirection","BackupDistance","BackupDistanceUnit","BackupElements","BackupElevation","BackupElevationUnit","BackupEquipment","BackupLatitude","BackupLongitude","BackupName","CDSD","CLDD","DSNW","DailyAverageDewPointTemperature","DailyAverageDryBulbTemperature","DailyAverageRelativeHumidity","DailyAverageSeaLevelPressure","DailyAverageStationPressure","DailyAverageWetBulbTemperature","DailyAverageWindSpeed","DailyCoolingDegreeDays","DailyDepartureFromNormalAverageTemperature","DailyHeatingDegreeDays","DailyMaximumDryBulbTemperature","DailyMinimumDryBulbTemperature","DailyPeakWindDirection","DailyPeakWindSpeed","DailyPrecipitation","DailySnowDepth","DailySnowfall","DailySustainedWindDirection","DailySustainedWindSpeed","DailyWeather","HDSD","HTDD","HeavyFog","HourlyAltimeterSetting","HourlyDewPointTemperature","HourlyDryBulbTemperature","HourlyPrecipitation","HourlyPresentWeatherType","HourlyPressureChange","HourlyPressureTendency","HourlyRelativeHumidity","HourlySeaLevelPressure","HourlySkyConditions","HourlyStationPressure","HourlyVisibility","HourlyWetBulbTemperature","HourlyWindDirection","HourlyWindGustSpeed","HourlyWindSpeed","MonthlyAverageRH","MonthlyDaysWithGT001Precip","MonthlyDaysWithGT010Precip","MonthlyDaysWithGT32Temp","MonthlyDaysWithGT90Temp","MonthlyDaysWithLT0Temp","MonthlyDaysWithLT32Temp","MonthlyDepartureFromNormalAverageTemperature","MonthlyDepartureFromNormalCoolingDegreeDays","MonthlyDepartureFromNormalHeatingDegreeDays","MonthlyDepartureFromNormalMaximumTemperature","MonthlyDepartureFromNormalMinimumTemperature","MonthlyDepartureFromNormalPrecipitation","MonthlyDewpointTemperature","MonthlyGreatestPrecip","MonthlyGreatestPrecipDate","MonthlyGreatestSnowDepth","MonthlyGreatestSnowDepthDate","MonthlyGreatestSnowfall","MonthlyGreatestSnowfallDate","MonthlyMaxSeaLevelPressureValue","MonthlyMaxSeaLevelPressureValueDate","MonthlyMaxSeaLevelPressureValueTime","MonthlyMaximumTemperature","MonthlyMeanTemperature","MonthlyMinSeaLevelPressureValue","MonthlyMinSeaLevelPressureValueDate","MonthlyMinSeaLevelPressureValueTime","MonthlyMinimumTemperature","MonthlySeaLevelPressure","MonthlyStationPressure","MonthlyTotalLiquidPrecipitation","MonthlyTotalSnowfall","MonthlyWetBulb","NormalsCoolingDegreeDay","NormalsHeatingDegreeDay","REM","REPORT_TYPE","SOURCE","ShortDurationEndDate005","ShortDurationEndDate010","ShortDurationEndDate015","ShortDurationEndDate020","ShortDurationEndDate030","ShortDurationEndDate045","ShortDurationEndDate060","ShortDurationEndDate080","ShortDurationEndDate100","ShortDurationEndDate120","ShortDurationEndDate150","ShortDurationEndDate180","ShortDurationPrecipitationValue005","ShortDurationPrecipitationValue010","ShortDurationPrecipitationValue015","ShortDurationPrecipitationValue020","ShortDurationPrecipitationValue030","ShortDurationPrecipitationValue045","ShortDurationPrecipitationValue060","ShortDurationPrecipitationValue080","ShortDurationPrecipitationValue100","ShortDurationPrecipitationValue120","ShortDurationPrecipitationValue150","ShortDurationPrecipitationValue180","Sunrise","Sunset","TStorms","WindEquipmentChangeDate"
"72314013881","2020-05-10T00:52:00","FM-15","7","","SE","1.4","mi","TEMP, PRECIP, SNOW","","","PSY, SRG, SNOWBOARD","","","FAA CWO","","","","","","","","","","","","","","","","","","","","","","","","","","","30.24","31","44","0.00","","-0.00","0","60","30.23","CLR:00","29.41","10.00","39","020","","6","","","","","","","","","","","","","","","","","","","","","","","","","","","","","","","","","","","","","MET11405/10/20 00:52:02 METAR KCLT 100552Z 02005KT 10SM CLR 07/M01 A3024 RMK AO2 SLP237 T00671006 10156 20050 50001 (MJ)","FM-15","7","","","","","","","","","","","","","","","","","","","","","","","","","","","","2009-06-02"
"72314013881","2020-05-10T01:00:00","FM-12","4","","SE","1.4","mi","TEMP, PRECIP, SNOW","","","PSY, SRG, SNOWBOARD","","","FAA CWO","","","","","","","","","","","","","","","","","","","","","","","","","","","","31","44","","","0.00","9","60","30.23","","29.46","9.94","39","020","","6","","","","","","","","","","","","","","","","","","","","","","","","","","","","","","","","","","","","","SYN08072314 32966 00205 10067 21006 39976 40237 50001 90552 333 10156 20044 555 91006=","FM-12","4","","","","","","","","","","","","","","","","","","","","","","","","","","","","2009-06-02"
"72314013881","2020-05-10T01:52:00","FM-15","7","","SE","1.4","mi","TEMP, PRECIP, SNOW","","","PSY, SRG, SNOWBOARD","","","FAA CWO","","","","","","","","","","","","","","","","","","","","","","","","","","","30.23","29","46","0.00","","","","51","30.22","CLR:00","29.40","10.00","39","050","","6","","","","","","","","","","","","","","","","","","","","","","","","","","","","","","","","","","","","","MET09605/10/20 01:52:02 METAR KCLT 100652Z 05005KT 10SM CLR 08/M02 A3023 RMK AO2 SLP235 T00781017 (MJ)","FM-15","7","","","","","","","","","","","","","","","","","","","","","","","","","","","","2009-06-02"
"72314013881","2020-05-10T02:52:00","FM-15","7","","SE","1.4","mi","TEMP, PRECIP, SNOW","","","PSY, SRG, SNOWBOARD","","","FAA CWO","","","","","","","","","","","","","","","","","","","","","","","","","","","30.24","28","47","0.00","","","","48","30.23","CLR:00","29.41","10.00","39","060","","6","","","","","","","","","","","","","","","","","","","","","","","","","","","","","","","","","","","","","MET09605/10/20 02:52:02 METAR KCLT 100752Z 06005KT 10SM CLR 08/M02 A3024 RMK AO2 SLP236 T00831022 (MJ)","FM-15","7","","","","","","","","","","","","","","","","","","","","","","","","","","","","2009-06-02"
"72314013881","2020-05-10T03:52:00","FM-15","7","","SE","1.4","mi","TEMP, PRECIP, SNOW","","","PSY, SRG, SNOWBOARD","","","FAA CWO","","","","","","","","","","","","","","","","","","","","","","","","","","","30.26","30","47","0.00","","-0.02","3","52","30.25","CLR:00","29.43","10.00","40","060","","6","","","","","","","","","","","","","","","","","","","","","","","","","","","","","","","","","","","","","MET10205/10/20 03:52:02 METAR KCLT 100852Z 06005KT 10SM CLR 08/M01 A3026 RMK AO2 SLP243 T00831011 53006 (MJ)","FM-15","7","","","","","","","","","","","","","","","","","","","","","","","","","","","","2009-06-02"
"72314013881","2020-05-10T04:00:00","FM-12","4","","SE","1.4","mi","TEMP, PRECIP, SNOW","","","PSY, SRG, SNOWBOARD","","","FAA CWO","","","","","","","","","","","","","","","","","","","","","","","","","","","","30","47","","","-0.02","3","52","30.25","","29.48","9.94","40","060","","6","","","","","","","","","","","","","","","","","","","","","","","","","","","","","","","","","","","","","SYN06472314 32966 00605 10083 21011 39983 40243 53006 90852 555 91009=","FM-12","4","","","","","","","","","","","","","","","","","","","","","","","","","","","","2009-06-02"
"72314013881","2020-05-10T04:52:00","FM-15","7","","SE","1.4","mi","TEMP, PRECIP, SNOW","","","PSY, SRG, SNOWBOARD","","","FAA CWO","","","","","","","","","","","","","","","","","","","","","","","","","","","30.26","29","47","0.00","","","","50","30.25","CLR:00","29.43","10.00","39","070","","8","","","","","","","","","","","","","","","","","","","","","","","","","","","","","","","","","","","","","MET09605/10/20 04:52:02 METAR KCLT 100952Z 07007KT 10SM CLR 08/M02 A3026 RMK AO2 SLP245 T00831017 (MJ)","FM-15","7","","","","","","","","","","","","","","","","","","","","","","","","","","","","2009-06-02"
"72314013881","2020-05-10T05:52:00","FM-15","7","","SE","1.4","mi","TEMP, PRECIP, SNOW","","","PSY, SRG, SNOWBOARD","","","FAA CWO","","","","","","","","","","","","","","","","","","","","","","","","","","","30.27","29","47","0.00","","","","50","30.26","FEW:02 250","29.44","10.00","39","080","","8","","","","","","","","","","","","","","","","","","","","","","","","","","","","","","","","","","","","","MET09905/10/20 05:52:02 METAR KCLT 101052Z 08007KT 10SM FEW250 08/M02 A3027 RMK AO2 SLP247 T00831017 (MJ)","FM-15","7","","","","","","","","","","","","","","","","","","","","","","","","","","","","2009-06-02"
"72314013881","2020-05-10T06:52:00","FM-15","7","","SE","1.4","mi","TEMP, PRECIP, SNOW","","","PSY, SRG, SNOWBOARD","","","FAA CWO","","","","","","","","","","","","","","","","","","","","","","","","","","","30.29","29","50","0.00","","-0.03","3","44","30.28","SCT:04 250","29.46","10.00","41","080","","7","","","","","","","","","","","","","","","","","","","","","","","","","","","","","","","","","","","","","MET11705/10/20 06:52:02 METAR KCLT 101152Z 08006KT 10SM SCT250 10/M02 A3029 RMK AO2 SLP254 T01001017 10100 20067 53011 (MJ)","FM-15","7","","","","","","","","","","","","","","","","","","","","","","","","","","","","2009-06-02"
"72314013881","2020-05-10T07:00:00","FM-12","4","","SE","1.4","mi","TEMP, PRECIP, SNOW","","","PSY, SRG, SNOWBOARD","","","FAA CWO","","","","","","","","","","","","","","","","","","","","","","","","","","","","29","50","","","-0.03","3","44","30.28","","29.51","9.94","41","080","","7","","","","","","","","","","","","","","","","","","","","","","","","","","","","","","","","","","","","","SYN08072314 32966 40806 10100 21017 39993 40254 53011 91152 333 10178 20050 555 91012=","FM-12","4","","","","","","","","","","","","","","","","","","","","","","","","","","","","2009-06-02"
"72314013881","2020-05-10T07:52:00","FM-15","7","","SE","1.4","mi","TEMP, PRECIP, SNOW","","","PSY, SRG, SNOWBOARD","","","FAA CWO","","","","","","","","","","","","","","","","","","","","","","","","","","","30.30","28","53","0.00","","","","38","30.29","SCT:04 250","29.47","10.00","42","120","","9","","","","","","","","","","","","","","","","","","","","","","","","","","","","","","","","","","","","","MET10005/10/20 07:52:02 METAR KCLT 101252Z 12008KT 10SM SCT250 12/M02 A3030 RMK AO2 SLP257 T01171022 (HWC)","FM-15","7","","","","","","","","","","","","","","","","","","","","","","","","","","","","2009-06-02"
"72314013881","2020-05-10T08:52:00","FM-15","7","","SE","1.4","mi","TEMP, PRECIP, SNOW","","","PSY, SRG, SNOWBOARD","","","FAA CWO","","","","","","","","","","","","","","","","","","","","","","","","","","","30.30","29","56","0.00","","","","36","30.29","SCT:04 250","29.47","10.00","44","130","","8","","","","","","","","","","","","","","","","","","","","","","","","","","","","","","","","","","","","","MET10005/10/20 08:52:02 METAR KCLT 101352Z 13007KT 10SM SCT250 13/M02 A3030 RMK AO2 SLP258 T01331017 (HWC)","FM-15","7","","","","","","","","","","","","","","","","","","","","","","","","","","","","2009-06-02"
"72314013881","2020-05-10T09:52:00","FM-15","7","","SE","1.4","mi","TEMP, PRECIP, SNOW","","","PSY, SRG, SNOWBOARD","","","FAA CWO","","","","","","","","","","","","","","","","","","","","","","","","","","","30.29","30","59","0.00","","+0.00","8","33","30.28","FEW:02 250","29.46","10.00","46","150","","9","","","","","","","","","","","","","","","","","","","","","","","","","","","","","","","","","","","","","MET10605/10/20 09:52:02 METAR KCLT 101452Z 15008KT 10SM FEW250 15/M01 A3029 RMK AO2 SLP254 T01501011 58001 (HWC)","FM-15","7","","","","","","","","","","","","","","","","","","","","","","","","","","","","2009-06-02"
"72314013881","2020-05-10T10:00:00","FM-12","4","","SE","1.4","mi","TEMP, PRECIP, SNOW","","","PSY, SRG, SNOWBOARD","","","FAA CWO","","","","","","","","","","","","","","","","","","","","","","","","","","","","30","59","","","+0.00","8","33","30.28","","29.51","9.94","46","150","","9","","","","","","","","","","","","","","","","","","","","","","","","","","","","","","","","","","","","","SYN06472314 32966 21508 10150 21011 39993 40254 58001 91452 555 91015=","FM-12","4","","","","","","","","","","","","","","","","","","","","","","","","","","","","2009-06-02"
"72314013881","2020-05-10T10:52:00","FM-15","7","","SE","1.4","mi","TEMP, PRECIP, SNOW","","","PSY, SRG, SNOWBOARD","","","FAA CWO","","","","","","","","","","","","","","","","","","","","","","","","","","","30.27","33","62","0.00","","","","34","30.27","FEW:02 60 SCT:04 250","29.44","10.00","48","170","","10","","","","","","","","","","","","","","","","","","","","","","","","","","","","","","","","","","","","","MET10605/10/20 10:52:02 METAR KCLT 101552Z 17009KT 10SM FEW060 SCT250 17/01 A3027 RMK AO2 SLP249 T01670006 (HWC)","FM-15","7","","","","","","","","","","","","","","","","","","","","","","","","","","","","2009-06-02"
"72314013881","2020-05-10T11:52:00","FM-15","7","","SE","1.4","mi","TEMP, PRECIP, SNOW","","","PSY, SRG, SNOWBOARD","","","FAA CWO","","","","","","","","","","","","","","","","","","","","","","","","","","","30.23","36","66","0.00","","","","33","30.23","FEW:02 60 FEW:02 250","29.40","10.00","51","190","","11","","","","","","","","","","","","","","","","","","","","","","","","","","","","","","","","","","","","","MET10605/10/20 11:52:02 METAR KCLT 101652Z 19010KT 10SM FEW060 FEW250 19/02 A3023 RMK AO2 SLP236 T01890022 (HWC)","FM-15","7","","","","","","","","","","","","","","","","","","","","","","","","","","","","2009-06-02"
"72314013881","2020-05-10T12:52:00","FM-15","7","","SE","1.4","mi","TEMP, PRECIP, SNOW","","","PSY, SRG, SNOWBOARD","","","FAA CWO","","","","","","","","","","","","","","","","","","","","","","","","","","","30.20","41","68","0.00","","+0.08","8","38","30.19","SCT:04 60 SCT:04 250","29.37","10.00","54","190","18","13","","","","","","","","","","","","","","","","","","","","","","","","","","","","","","","","","","","","","MET12705/10/20 12:52:02 METAR KCLT 101752Z 19011G16KT 10SM SCT060 SCT250 20/05 A3020 RMK AO2 SLP224 T02000050 10200 20100 58028 (HWC)","FM-15","7","","","","","","","","","","","","","","","","","","","","","","","","","","","","2009-06-02"
"72314013881","2020-05-10T13:00:00","FM-12","4","","SE","1.4","mi","TEMP, PRECIP, SNOW","","","PSY, SRG, SNOWBOARD","","","FAA CWO","","","","","","","","","","","","","","","","","","","","","","","","","","","","41","68","","","+0.08","8","38","30.19","57","29.42","9.94","54","190","","13","","","","","","","","","","","","","","","","","","","","","","","","","","","","","","","","","","","","","SYN08672314 32766 41911 10200 20050 39963 40224 58028 91752 333 10200 20100 91016 555 91018=","FM-12","4","","","","","","","","","","","","","","","","","","","","","","","","","","","","2009-06-02"
"72314013881","2020-05-10T13:52:00","FM-15","7","","SE","1.4","mi","TEMP, PRECIP, SNOW","","","PSY, SRG, SNOWBOARD","","","FAA CWO","","","","","","","","","","","","","","","","","","","","","","","","","","","30.17","41","68","0.00","","","","38","30.16","SCT:04 60 SCT:04 250","29.34","10.00","54","190","24","13","","","","","","","","","","","","","","","","","","","","","","","","","","","","","","","","","","","","","MET10905/10/20 13:52:02 METAR KCLT 101852Z 19011G21KT 10SM SCT060 SCT250 20/05 A3017 RMK AO2 SLP214 T02000050 (HWC)","FM-15","7","","","","","","","","","","","","","","","","","","","","","","","","","","","","2009-06-02"
"72314013881","2020-05-10T14:52:00","FM-15","7","","SE","1.4","mi","TEMP, PRECIP, SNOW","","","PSY, SRG, SNOWBOARD","","","FAA CWO","","","","","","","","","","","","","","","","","","","","","","","","","","","30.14","41","68","0.00","","","","38","30.13","SCT:04 55","29.31","10.00","54","200","21","14","","","","","","","","","","","","","","","","","","","","","","","","","","","","","","","","","","","","","MET10205/10/20 14:52:02 METAR KCLT 101952Z 20012G18KT 10SM SCT055 20/05 A3014 RMK AO2 SLP202 T02000050 (HWC)","FM-15","7","","","","","","","","","","","","","","","","","","","","","","","","","","","","2009-06-02"
"72314013881","2020-05-10T15:52:00","FM-15","7","","SE","1.4","mi","TEMP, PRECIP, SNOW","","","PSY, SRG, SNOWBOARD","","","FAA CWO","","","","","","","","","","","","","","","","","","","","","","","","","","","30.11","42","70","0.00","","+0.09","8","37","30.09","SCT:04 60","29.28","10.00","55","230","21","11","","","","","","","","","","","","","","","","","","","","","","","","","","","","","","","","","","","","","MET10805/10/20 15:52:02 METAR KCLT 102052Z 23010G18KT 10SM SCT060 21/06 A3011 RMK AO2 SLP191 T02110056 58031 (SAC)","FM-15","7","","","","","","","","","","","","","","","","","","","","","","","","","","","","2009-06-02"
"72314013881","2020-05-10T16:00:00","FM-12","4","","SE","1.4","mi","TEMP, PRECIP, SNOW","","","PSY, SRG, SNOWBOARD","","","FAA CWO","","","","","","","","","","","","","","","","","","","","","","","","","","","","42","70","","","+0.09","8","37","30.09","57","29.33","9.94","55","230","","11","","","","","","","","","","","","","","","","","","","","","","","","","","","","","","","","","","","","","SYN07472314 32766 42310 10211 20056 39933 40191 58031 92052 333 91018 555 91021=","FM-12","4","","","","","","","","","","","","","","","","","","","","","","","","","","","","2009-06-02"
"72314013881","2020-05-10T16:52:00","FM-15","7","","SE","1.4","mi","TEMP, PRECIP, SNOW","","","PSY, SRG, SNOWBOARD","","","FAA CWO","","","","","","","","","","","","","","","","","","","","","","","","","","","30.09","42","68","0.00","","","","39","30.08","FEW:02 65","29.26","10.00","54","210","20","9","","","","","","","","","","","","","","","","","","","","","","","","","","","","","","","","","","","","","MET10205/10/20 16:52:02 METAR KCLT 102152Z 21008G17KT 10SM FEW065 20/06 A3009 RMK AO2 SLP186 T02000056 (SAC)","FM-15","7","","","","","","","","","","","","","","","","","","","","","","","","","","","","2009-06-02"
"72314013881","2020-05-10T17:52:00","FM-15","7","","SE","1.4","mi","TEMP, PRECIP, SNOW","","","PSY, SRG, SNOWBOARD","","","FAA CWO","","","","","","","","","","","","","","","","","","","","","","","","","","","30.07","42","69","0.00","","","","38","30.06","FEW:02 65","29.25","10.00","55","210","21","14","","","","","","","","","","","","","","","","","","","","","","","","","","","","","","","","","","","","","MET10205/10/20 17:52:02 METAR KCLT 102252Z 21012G18KT 10SM FEW065 21/06 A3007 RMK AO2 SLP180 T02060056 (SAC)","FM-15","7","","","","","","","","","","","","","","","","","","","","","","","","","","","","2009-06-02"
"72314013881","2020-05-10T18:52:00","FM-15","7","","SE","1.4","mi","TEMP, PRECIP, SNOW","","","PSY, SRG, SNOWBOARD","","","FAA CWO","","","","","","","","","","","","","","","","","","","","","","","","","","","30.06","43","66","0.00","","+0.04","6","43","30.05","FEW:02 65","29.23","10.00","54","200","","7","","","","","","","","","","","","","","","","","","","","","","","","","","","","","","","","","","","","","MET11705/10/20 18:52:02 METAR KCLT 102352Z 20006KT 10SM FEW065 19/06 A3006 RMK AO2 SLP177 T01890061 10211 20189 56014 (SAC)","FM-15","7","","","","","","","","","","","","","","","","","","","","","","","","","","","","2009-06-02"
"72314013881","2020-05-10T19:00:00","FM-12","4","","SE","1.4","mi","TEMP, PRECIP, SNOW","","","PSY, SRG, SNOWBOARD","","","FAA CWO","","","","","","","","","","","","","","","","","","","","","","","","","","","","43","66","","","+0.04","6","43","30.05","57","29.28","9.94","54","200","","7","","","","","","","","","","","","","","","","","","","","","","","","","","","","","","","","","","","","","SYN08072314 32766 22006 10189 20061 39917 40177 56014 92352 333 10211 20067 555 91100=","FM-12","4","","","","","","","","","","","","","","","","","","","","","","","","","","","","2009-06-02"
"72314013881","2020-05-10T19:52:00","FM-15","7","","SE","1.4","mi","TEMP, PRECIP, SNOW","","","PSY, SRG, SNOWBOARD","","","FAA CWO","","","","","","","","","","","","","","","","","","","","","","","","","","","30.06","44","62","0.00","","","","52","30.05","FEW:02 100","29.23","10.00","53","180","","6","","","","","","","","","","","","","","","","","","","","","","","","","","","","","","","","","","","","","MET09305/10/20 19:52:01 METAR KCLT 110052Z 18005KT 10SM FEW100 17/07 A3006 RMK AO2 SLP177 T01670067","FM-15","7","","","","","","","","","","","","","","","","","","","","","","","","","","","","2009-06-02"
"72314013881","2020-05-10T20:52:00","FM-15","7","","SE","1.4","mi","TEMP, PRECIP, SNOW","","","PSY, SRG, SNOWBOARD","","","FAA CWO","","","","","","","","","","","","","","","","","","","","","","","","","","","30.06","45","59","0.00","","","","60","30.05","CLR:00","29.23","10.00","52","180","","7","","","","","","","","","","","","","","","","","","","","","","","","","","","","","","","","","","","","","MET09005/10/20 20:52:01 METAR KCLT 110152Z 18006KT 10SM CLR 15/07 A3006 RMK AO2 SLP176 T01500072","FM-15","7","","","","","","","","","","","","","","","","","","","","","","","","","","","","2009-06-02"
"72314013881","2020-05-10T21:52:00","FM-15","7","","SE","1.4","mi","TEMP, PRECIP, SNOW","","","PSY, SRG, SNOWBOARD","","","FAA CWO","","","","","","","","","","","","","","","","","","","","","","","","","","","30.06","46","57","0.00","","+0.00","7","67","30.05","CLR:00","29.23","10.00","51","200","","7","","","","","","","","","","","","","","","","","","","","","","","","","","","","","","","","","","","","","MET09605/10/20 21:52:01 METAR KCLT 110252Z 20006KT 10SM CLR 14/08 A3006 RMK AO2 SLP176 T01390078 57001","FM-15","7","","","","","","","","","","","","","","","","","","","","","","","","","","","","2009-06-02"
"72314013881","2020-05-10T22:00:00","FM-12","4","","SE","1.4","mi","TEMP, PRECIP, SNOW","","","PSY, SRG, SNOWBOARD","","","FAA CWO","","","","","","","","","","","","","","","","","","","","","","","","","","","","46","57","","","+0.00","7","67","30.05","","29.28","9.94","51","200","","7","","","","","","","","","","","","","","","","","","","","","","","","","","","","","","","","","","","","","SYN06472314 32966 02006 10139 20078 39917 40176 57001 90252 555 91103=","FM-12","4","","","","","","","","","","","","","","","","","","","","","","","","","","","","2009-06-02"
"72314013881","2020-05-10T22:52:00","FM-15","7","","SE","1.4","mi","TEMP, PRECIP, SNOW","","","PSY, SRG, SNOWBOARD","","","FAA CWO","","","","","","","","","","","","","","","","","","","","","","","","","","","30.05","46","56","0.00","","","","70","30.04","CLR:00","29.23","10.00","51","210","","6","","","","","","","","","","","","","","","","","","","","","","","","","","","","","","","","","","","","","MET09005/10/20 22:52:02 METAR KCLT 110352Z 21005KT 10SM CLR 13/08 A3005 RMK AO2 SLP172 T01330078","FM-15","7","","","","","","","","","","","","","","","","","","","","","","","","","","","","2009-06-02"
"72314013881","2020-05-10T23:52:00","FM-15","7","","SE","1.4","mi","TEMP, PRECIP, SNOW","","","PSY, SRG, SNOWBOARD","","","FAA CWO","","","","","","","","","","","","","","","","","","","","","","","","","","","30.04","46","55","0.00","","","","72","30.02","CLR:00","29.22","10.00","50","220","","6","","","","","","","","","","","","","","","","","","","","","","","","","","","","","","","","","","","","","MET10005/10/20 23:52:02 METAR KCLT 110452Z 22005KT 10SM CLR 13/08 A3004 RMK AO2 SLP166 T01280078 402110067","FM-15","7","","","","","","","","","","","","","","","","","","","","","","","","","","","","2009-06-02"
"72314013881","2020-05-10T23:59:00","SOD  ","6","","SE","1.4","mi","TEMP, PRECIP, SNOW","","","PSY, SRG, SNOWBOARD","","","FAA CWO","","","","37","57","46","30.17","29.36","48","8.6","0","-8.7","8","70","44","230","24","0.00","0","0.0","190","17","","","","","","","","","","","","","","","","","","","","","","","","","","","","","","","","","","","","","","","","","","","","","","","","","","","","","","","","","SOD73924 HR PRECIPITATION (IN): 0.00 SNOW DEPTH (IN):0     24 HR SNOWFALL (IN):0.0  24 HR MAX TEMP (F): 7024 HR MIN TEMP (F): 44AVERAGE STATION PRESSURE:29.365 MINIMUM SEA LEVEL PRESSURE:30.02 TIME OF OCCURRENCE:2359 PEAK WIND SPEED (MPH): 24 PEAK WIND DIR (DEG):230 PEAK WIND TIME (LST):      FASTEST 2MIN SPEED (MPH): 17FASTEST 2MIN DIR (DEG):190 FASTEST 2MIN TIME (LST):     AVERAGE WIND SPEED (MPH): 8.6 24 HR AVG TEMP (F): 57DEPART FROM NORMAL: -9  HEATING DEGREE DAYS:  8 COOLING DEGREE DAYS:  0 LATEST DAY MAX TEMP (0700-1900 LST):70  LATEST NIGHT MIN TEMP(1900-0800 LST):41 HOURLY INCREMENTAL PRECIPITATION VALUES (IN):.00 0.00 0.00 0.00 0.00 0.00 0.00 0.00 0.00 0.00 0.00 0.00 0.00 0.00 0.00 0.00 0.00 0.00 0.00 0.00 0.00 0.00 0.00 0.00","SOD  ","6","","","","","","","","","","","","","","","","","","","","","","","","","0523","1918","","2009-06-02"
"72314013881","2020-05-11T00:52:00","FM-15","7","","SE","1.4","mi","TEMP, PRECIP, SNOW","","","PSY, SRG, SNOWBOARD","","","FAA CWO","","","","","","","","","","","","","","","","","","","","","","","","","","","30.02","45","56","0.00","","+0.04","8","67","30.01","CLR:00","29.20","10.00","50","240","","6","","","","","","","","","","","","","","","","","","","","","","","","","","","","","","","","","","","","","MET11405/11/20 00:52:02 METAR KCLT 110552Z 24005KT 10SM CLR 13/07 A3002 RMK AO2 SLP162 T01330072 10189 20122 58013 (RJH)","FM-15","7","","","","","","","","","","","","","","","","","","","","","","","","","","","","2009-06-02"
"72314013881","2020-05-11T01:00:00","FM-12","4","","SE","1.4","mi","TEMP, PRECIP, SNOW","","","PSY, SRG, SNOWBOARD","","","FAA CWO","","","","","","","","","","","","","","","","","","","","","","","","","","","","45","56","","","+0.04","8","67","30.01","","29.24","9.94","50","240","","6","","","","","","","","","","","","","","","","","","","","","","","","","","","","","","","","","","","","","SYN08072314 32966 02405 10133 20072 39903 40162 58013 90552 333 10189 20067 555 91106=","FM-12","4","","","","","","","","","","","","","","","","","","","","","","","","","","","","2009-06-02"
"72314013881","2020-05-11T01:52:00","FM-15","7","","SE","1.4","mi","TEMP, PRECIP, SNOW","","","PSY, SRG, SNOWBOARD","","","FAA CWO","","","","","","","","","","","","","","","","","","","","","","","","","","","30.00","43","53","0.00","","","","69","29.99","CLR:00","29.18","10.00","48","240","","5","","","","","","","","","","","","","","","","","","","","","","","","","","","","","","","","","","","","","MET09605/11/20 01:52:02 METAR KCLT 110652Z 24004KT 10SM CLR 12/06 A3000 RMK AO2 SLP155 T01170061 (RJH)","FM-15","7","","","","","","","","","","","","","","","","","","","","","","","","","","","","2009-06-02"
"72314013881","2020-05-11T02:52:00","FM-15","7","","SE","1.4","mi","TEMP, PRECIP, SNOW","","","PSY, SRG, SNOWBOARD","","","FAA CWO","","","","","","","","","","","","","","","","","","","","","","","","","","","30.00","42","51","0.00","","","","71","29.99","CLR:00","29.18","10.00","47","240","","3","","","","","","","","","","","","","","","","","","","","","","","","","","","","","","","","","","","","","MET09605/11/20 02:52:02 METAR KCLT 110752Z 24003KT 10SM CLR 11/06 A3000 RMK AO2 SLP155 T01060056 (RJH)","FM-15","7","","","","","","","","","","","","","","","","","","","","","","","","","","","","2009-06-02"
"72314013881","2020-05-11T03:52:00","FM-15","7","","SE","1.4","mi","TEMP, PRECIP, SNOW","","","PSY, SRG, SNOWBOARD","","","FAA CWO","","","","","","","","","","","","","","","","","","","","","","","","","","","30.03","41","50","0.00","","-0.01","3","71","30.01","CLR:00","29.21","10.00","46","320","","5","","","","","","","","","","","","","","","","","","","","","","","","","","","","","","","","","","","","","MET10205/11/20 03:52:02 METAR KCLT 110852Z 32004KT 10SM CLR 10/05 A3003 RMK AO2 SLP164 T01000050 53002 (RJH)","FM-15","7","","","","","","","","","","","","","","","","","","","","","","","","","","","","2009-06-02"
"72314013881","2020-05-11T04:00:00","FM-12","4","","SE","1.4","mi","TEMP, PRECIP, SNOW","","","PSY, SRG, SNOWBOARD","","","FAA CWO","","","","","","","","","","","","","","","","","","","","","","","","","","","","41","50","","","-0.01","3","71","30.01","","29.26","9.94","46","320","","5","","","","","","","","","","","","","","","","","","","","","","","","","","","","","","","","","","","","","SYN06472314 32966 03204 10100 20050 39907 40164 53002 90852 555 91109=","FM-12","4","","","","","","","","","","","","","","","","","","","","","","","","","","","","2009-06-02"
"72314013881","2020-05-11T04:52:00","FM-15","7","","SE","1.4","mi","TEMP, PRECIP, SNOW","","","PSY, SRG, SNOWBOARD","","","FAA CWO","","","","","","","","","","","","","","","","","","","","","","","","","","","30.05","40","50","0.00","","","","68","30.04","FEW:02 120","29.23","10.00","45","310","","6","","","","","","","","","","","","","","","","","","","","","","","","","","","","","","","","","","","","","MET09905/11/20 04:52:02 METAR KCLT 110952Z 31005KT 10SM FEW120 10/04 A3005 RMK AO2 SLP173 T01000044 (RJH)","FM-15","7","","","","","","","","","","","","","","","","","","","","","","","","","","","","2009-06-02"
"72314013881","2020-05-11T05:52:00","FM-15","7","","SE","1.4","mi","TEMP, PRECIP, SNOW","","","PSY, SRG, SNOWBOARD","","","FAA CWO","","","","","","","","","","","","","","","","","","","","","","","","","","","30.08","41","50","0.00","","","","71","30.07","FEW:02 110","29.26","10.00","46","330","","3","","","","","","","","","","","","","","","","","","","","","","","","","","","","","","","","","","","","","MET09905/11/20 05:52:02 METAR KCLT 111052Z 33003KT 10SM FEW110 10/05 A3008 RMK AO2 SLP182 T01000050 (RJH)","FM-15","7","","","","","","","","","","","","","","","","","","","","","","","","","","","","2009-06-02"
"72314013881","2020-05-11T06:52:00","FM-15","7","","SE","1.4","mi","TEMP, PRECIP, SNOW","","","PSY, SRG, SNOWBOARD","","","FAA CWO","","","","","","","","","","","","","","","","","","","","","","","","","","","30.11","38","53","0.00","","-0.08","3","57","30.10","FEW:02 110","29.28","10.00","46","320","21","14","","","","","","","","","","","","","","","","","","","","","","","","","","","","","","","","","","","","","MET12005/11/20 06:52:02 METAR KCLT 111152Z 32012G18KT 10SM FEW110 12/03 A3011 RMK AO2 SLP192 T01170033 10128 20094 53027 (RJH)","FM-15","7","","","","","","","","","","","","","","","","","","","","","","","","","","","","2009-06-02"
"72314013881","2020-05-11T07:00:00","FM-12","4","","SE","1.4","mi","TEMP, PRECIP, SNOW","","","PSY, SRG, SNOWBOARD","","","FAA CWO","","","","","","","","","","","","","","","","","","","","","","","","","","","","38","53","","","-0.08","3","57","30.10","","29.33","9.94","46","320","","14","","","","","","","","","","","","","","","","","","","","","","","","","","","","","","","","","","","","","SYN08672314 32966 23212 10117 20033 39933 40192 53027 91152 333 10211 20094 91018 555 91112=","FM-12","4","","","","","","","","","","","","","","","","","","","","","","","","","","","","2009-06-02"
"72314013881","2020-05-11T07:52:00","FM-15","7","","SE","1.4","mi","TEMP, PRECIP, SNOW","","","PSY, SRG, SNOWBOARD","","","FAA CWO","","","","","","","","","","","","","","","","","","","","","","","","","","","30.12","33","55","0.00","","","","44","30.11","FEW:02 60","29.29","10.00","45","VRB","20","9","","","","","","","","","","","","","","","","","","","","","","","","","","","","","","","","","","","","","MET10205/11/20 07:52:02 METAR KCLT 111252Z 32008G17KT 10SM FEW060 13/01 A3012 RMK AO2 SLP197 T01280006 (DJS)","FM-15","7","","","","","","","","","","","","","","","","","","","","","","","","","","","","2009-06-02"
"72314013881","2020-05-11T08:52:00","FM-15","7","","SE","1.4","mi","TEMP, PRECIP, SNOW","","","PSY, SRG, SNOWBOARD","","","FAA CWO","","","","","","","","","","","","","","","","","","","","","","","","","","","30.12","29","58","0.00","","","","33","30.11","FEW:02 60","29.29","10.00","45","320","24","16","","","","","","","","","","","","","","","","","","","","","","","","","","","","","","","","","","","","","MET10305/11/20 08:52:02 METAR KCLT 111352Z 32014G21KT 10SM FEW060 14/M02 A3012 RMK AO2 SLP197 T01441017 (DJS)","FM-15","7","","","","","","","","","","","","","","","","","","","","","","","","","","","","2009-06-02"
"72314013881","2020-05-11T09:52:00","FM-15","7","","SE","1.4","mi","TEMP, PRECIP, SNOW","","","PSY, SRG, SNOWBOARD","","","FAA CWO","","","","","","","","","","","","","","","","","","","","","","","","","","","30.13","28","60","0.00","","-0.02","1","30","30.11","FEW:02 60","29.30","10.00","46","300","24","15","","","","","","","","","","","","","","","","","","","","","","","","","","","","","","","","","","","","","MET10905/11/20 09:52:02 METAR KCLT 111452Z 30013G21KT 10SM FEW060 16/M02 A3013 RMK AO2 SLP198 T01561022 51006 (DJS)","FM-15","7","","","","","","","","","","","","","","","","","","","","","","","","","","","","2009-06-02"
"72314013881","2020-05-11T10:00:00","FM-12","4","","SE","1.4","mi","TEMP, PRECIP, SNOW","","","PSY, SRG, SNOWBOARD","","","FAA CWO","","","","","","","","","","","","","","","","","","","","","","","","","","","","28","60","","","-0.02","1","30","30.11","57","29.35","9.94","46","300","","15","","","","","","","","","","","","","","","","","","","","","","","","","","","","","","","","","","","","","SYN07472314 32766 23013 10156 21022 39940 40198 51006 91452 333 91021 555 91115=","FM-12","4","","","","","","","","","","","","","","","","","","","","","","","","","","","","2009-06-02"
"72314013881","2020-05-11T10:52:00","FM-15","7","","SE","1.4","mi","TEMP, PRECIP, SNOW","","","PSY, SRG, SNOWBOARD","","","FAA CWO","","","","","","","","","","","","","","","","","","","","","","","","","","","30.11","28","62","0.00","","","","28","30.10","FEW:02 60","29.28","10.00","47","310","21","11","","","","","","","","","","","","","","","","","","","","","","","","","","","","","","","","","","","","","MET10305/11/20 10:52:02 METAR KCLT 111552Z 31010G18KT 10SM FEW060 17/M02 A3011 RMK AO2 SLP194 T01671022 (DJS)","FM-15","7","","","","","","","","","","","","","","","","","","","","","","","","","","","","2009-06-02"
"72314013881","2020-05-11T11:52:00","FM-15","7","","SE","1.4","mi","TEMP, PRECIP, SNOW","","","PSY, SRG, SNOWBOARD","","","FAA CWO","","","","","","","","","","","","","","","","","","","","","","","","","","","30.11","29","63","0.00","","","","28","30.09","FEW:02 70","29.28","10.00","47","310","18","10","","","","","","","","","","","","","","","","","","","","","","","","","","","","","","","","","","","","","MET10305/11/20 11:52:02 METAR KCLT 111652Z 31009G16KT 10SM FEW070 17/M02 A3011 RMK AO2 SLP191 T01721017 (DJS)","FM-15","7","","","","","","","","","","","","","","","","","","","","","","","","","","","","2009-06-02"
"72314013881","2020-05-11T12:52:00","FM-15","7","","SE","1.4","mi","TEMP, PRECIP, SNOW","","","PSY, SRG, SNOWBOARD","","","FAA CWO","","","","","","","","","","","","","","","","","","","","","","","","","","","30.09","28","64","0.00","","+0.04","8","26","30.08","FEW:02 70","29.26","10.00","48","330","24","16","","","","","","","","","","","","","","","","","","","","","","","","","","","","","","","","","","","","","MET12105/11/20 12:52:02 METAR KCLT 111752Z 33014G21KT 10SM FEW070 18/M02 A3009 RMK AO2 SLP185 T01781022 10183 20117 58013 (DJS)","FM-15","7","","","","","","","","","","","","","","","","","","","","","","","","","","","","2009-06-02"
"72314013881","2020-05-11T13:00:00","FM-12","4","","SE","1.4","mi","TEMP, PRECIP, SNOW","","","PSY, SRG, SNOWBOARD","","","FAA CWO","","","","","","","","","","","","","","","","","","","","","","","","","","","","28","64","","","+0.04","8","26","30.08","74","29.31","9.94","48","330","","16","","","","","","","","","","","","","","","","","","","","","","","","","","","","","","","","","","","","","SYN08672314 32866 23314 10178 21022 39926 40185 58013 91752 333 10183 20117 91021 555 91118=","FM-12","4","","","","","","","","","","","","","","","","","","","","","","","","","","","","2009-06-02"
"72314013881","2020-05-11T13:52:00","FM-15","7","","SE","1.4","mi","TEMP, PRECIP, SNOW","","","PSY, SRG, SNOWBOARD","","","FAA CWO","","","","","","","","","","","","","","","","","","","","","","","","","","","30.08","29","65","0.00","","","","26","30.07","FEW:02 70","29.26","10.00","48","300","20","8","","","","","","","","","","","","","","","","","","","","","","","","","","","","","","","","","","","","","MET10305/11/20 13:52:02 METAR KCLT 111852Z 30007G17KT 10SM FEW070 18/M02 A3008 RMK AO2 SLP183 T01831017 (DJS)","FM-15","7","","","","","","","","","","","","","","","","","","","","","","","","","","","","2009-06-02"
"72314013881","2020-05-11T14:52:00","FM-15","7","","SE","1.4","mi","TEMP, PRECIP, SNOW","","","PSY, SRG, SNOWBOARD","","","FAA CWO","","","","","","","","","","","","","","","","","","","","","","","","","","","30.07","32","66","0.00","","","","28","30.06","FEW:02 80","29.25","10.00","50","330","21","14","","","","","","","","","","","","","","","","","","","","","","","","","","","","","","","","","","","","","MET10205/11/20 14:52:02 METAR KCLT 111952Z 33012G18KT 10SM FEW080 19/00 A3007 RMK AO2 SLP178 T01890000 (DJS)","FM-15","7","","","","","","","","","","","","","","","","","","","","","","","","","","","","2009-06-02"
"72314013881","2020-05-11T15:52:00","FM-15","7","","SE","1.4","mi","TEMP, PRECIP, SNOW","","","PSY, SRG, SNOWBOARD","","","FAA CWO","","","","","","","","","","","","","","","","","","","","","","","","","","","30.07","32","67","0.00","","+0.02","5","27","30.06","FEW:02 80","29.25","10.00","50","320","18","11","","","","","","","","","","","","","","","","","","","","","","","","","","","","","","","","","","","","","MET10805/11/20 15:52:02 METAR KCLT 112052Z 32010G16KT 10SM FEW080 19/00 A3007 RMK AO2 SLP179 T01940000 55006 (HWC)","FM-15","7","","","","","","","","","","","","","","","","","","","","","","","","","","","","2009-06-02"
"72314013881","2020-05-11T16:00:00","FM-12","4","","SE","1.4","mi","TEMP, PRECIP, SNOW","","","PSY, SRG, SNOWBOARD","","","FAA CWO","","","","","","","","","","","","","","","","","","","","","","","","","","","","32","67","","","+0.02","5","27","30.06","74","29.29","9.94","50","320","","11","","","","","","","","","","","","","","","","","","","","","","","","","","","","","","","","","","","","","SYN07472314 32866 23210 10194 20000 39920 40179 55006 92052 333 91016 555 91121=","FM-12","4","","","","","","","","","","","","","","","","","","","","","","","","","","","","2009-06-02"
"72314013881","2020-05-11T16:52:00","FM-15","7","","SE","1.4","mi","TEMP, PRECIP, SNOW","","","PSY, SRG, SNOWBOARD","","","FAA CWO","","","","","","","","","","","","","","","","","","","","","","","","","","","30.08","30","65","0.00","","","","27","30.07","FEW:02 80","29.26","10.00","49","290","18","10","","","","","","","","","","","","","","","","","","","","","","","","","","","","","","","","","","","","","MET10305/11/20 16:52:02 METAR KCLT 112152Z 29009G16KT 10SM FEW080 18/M01 A3008 RMK AO2 SLP182 T01831011 (HWC)","FM-15","7","","","","","","","","","","","","","","","","","","","","","","","","","","","","2009-06-02"
"72314013881","2020-05-11T17:52:00","FM-15","7","","SE","1.4","mi","TEMP, PRECIP, SNOW","","","PSY, SRG, SNOWBOARD","","","FAA CWO","","","","","","","","","","","","","","","","","","","","","","","","","","","30.08","29","63","0.00","","","","28","30.08","FEW:02 80","29.26","10.00","47","330","","10","","","","","","","","","","","","","","","","","","","","","","","","","","","","","","","","","","","","","MET10005/11/20 17:52:02 METAR KCLT 112252Z 33009KT 10SM FEW080 17/M02 A3008 RMK AO2 SLP185 T01721017 (HWC)","FM-15","7","","","","","","","","","","","","","","","","","","","","","","","","","","","","2009-06-02"
"72314013881","2020-05-11T18:52:00","FM-15","7","","SE","1.4","mi","TEMP, PRECIP, SNOW","","","PSY, SRG, SNOWBOARD","","","FAA CWO","","","","","","","","","","","","","","","","","","","","","","","","","","","30.10","29","59","0.00","","-0.03","3","32","30.09","FEW:02 80","29.28","10.00","46","VRB","","7","","","","","","","","","","","","","","","","","","","","","","","","","","","","","","","","","","","","","MET11805/11/20 18:52:02 METAR KCLT 112352Z VRB06KT 10SM FEW080 15/M02 A3010 RMK AO2 SLP190 T01501017 10194 20150 53009 (HWC)","FM-15","7","","","","","","","","","","","","","","","","","","","","","","","","","","","","2009-06-02"
"72314013881","2020-05-11T19:00:00","FM-12","4","","SE","1.4","mi","TEMP, PRECIP, SNOW","","","PSY, SRG, SNOWBOARD","","","FAA CWO","","","","","","","","","","","","","","","","","","","","","","","","","","","","29","59","","","-0.03","3","32","30.09","74","29.32","9.94","46","","","7","","","","","","","","","","","","","","","","","","","","","","","","","","","","","","","","","","","","","SYN08072314 32866 2//06 10150 21017 39930 40190 53009 92352 333 10194 20094 555 91200=","FM-12","4","","","","","","","","","","","","","","","","","","","","","","","","","","","","2009-06-02"
"72314013881","2020-05-11T19:52:00","FM-15","7","","SE","1.4","mi","TEMP, PRECIP, SNOW","","","PSY, SRG, SNOWBOARD","","","FAA CWO","","","","","","","","","","","","","","","","","","","","","","","","","","","30.13","30","55","0.00","","","","38","30.12","FEW:02 75","29.30","10.00","44","340","","3","","","","","","","","","","","","","","","","","","","","","","","","","","","","","","","","","","","","","MET09405/11/20 19:52:01 METAR KCLT 120052Z 34003KT 10SM FEW075 13/M01 A3013 RMK AO2 SLP199 T01281011","FM-15","7","","","","","","","","","","","","","","","","","","","","","","","","","","","","2009-06-02"
"72314013881","2020-05-11T20:52:00","FM-15","7","","SE","1.4","mi","TEMP, PRECIP, SNOW","","","PSY, SRG, SNOWBOARD","","","FAA CWO","","","","","","","","","","","","","","","","","","","","","","","","","","","30.14","31","52","0.00","","","","45","30.14","FEW:02 75","29.31","10.00","43","350","","6","","","","","","","","","","","","","","","","","","","","","","","","","","","","","","","","","","","","","MET09405/11/20 20:52:01 METAR KCLT 120152Z 35005KT 10SM FEW075 11/M01 A3014 RMK AO2 SLP205 T01111006","FM-15","7","","","","","","","","","","","","","","","","","","","","","","","","","","","","2009-06-02"
"72314013881","2020-05-11T21:52:00","FM-15","7","","SE","1.4","mi","TEMP, PRECIP, SNOW","","","PSY, SRG, SNOWBOARD","","","FAA CWO","","","","","","","","","","","","","","","","","","","","","","","","","","","30.16","30","51","0.00","","-0.06","1","44","30.16","CLR:00","29.33","10.00","42","350","","5","","","","","","","","","","","","","","","","","","","","","","","","","","","","","","","","","","","","","MET09705/11/20 21:52:01 METAR KCLT 120252Z 35004KT 10SM CLR 11/M01 A3016 RMK AO2 SLP212 T01061011 51021","FM-15","7","","","","","","","","","","","","","","","","","","","","","","","","","","","","2009-06-02"
"72314013881","2020-05-11T22:00:00","FM-12","4","","SE","1.4","mi","TEMP, PRECIP, SNOW","","","PSY, SRG, SNOWBOARD","","","FAA CWO","","","","","","","","","","","","","","","","","","","","","","","","","","","","30","51","","","-0.06","1","44","30.16","","29.38","9.94","42","350","","5","","","","","","","","","","","","","","","","","","","","","","","","","","","","","","","","","","","","","SYN06472314 32966 03504 10106 21011 39950 40212 51021 90252 555 91203=","FM-12","4","","","","","","","","","","","","","","","","","","","","","","","","","","","","2009-06-02"
"72314013881","2020-05-11T22:52:00","FM-15","7","","SE","1.4","mi","TEMP, PRECIP, SNOW","","","PSY, SRG, SNOWBOARD","","","FAA CWO","","","","","","","","","","","","","","","","","","","","","","","","","","","30.17","30","50","0.00","","","","46","30.16","FEW:02 250","29.34","10.00","41","350","","3","","","","","","","","","","","","","","","","","","","","","","","","","","","","","","","","","","","","","MET09405/11/20 22:52:02 METAR KCLT 120352Z 35003KT 10SM FEW250 10/M01 A3017 RMK AO2 SLP213 T01001011","FM-15","7","","","","","","","","","","","","","","","","","","","","","","","","","","","","2009-06-02"
"72314013881","2020-05-11T23:52:00","FM-15","7","","SE","1.4","mi","TEMP, PRECIP, SNOW","","","PSY, SRG, SNOWBOARD","","","FAA CWO","","","","","","","","","","","","","","","","","","","","","","","","","","","30.18","31","48","0.00","","","","52","30.17","CLR:00","29.35","10.00","41","340","","7","","","","","","","","","","","","","","","","","","","","","","","","","","","","","","","","","","","","","MET10105/11/20 23:52:02 METAR KCLT 120452Z 34006KT 10SM CLR 09/M01 A3018 RMK AO2 SLP217 T00891006 401940078","FM-15","7","","","","","","","","","","","","","","","","","","","","","","","","","","","","2009-06-02"
"72314013881","2020-05-11T23:59:00","SOD  ","6","","SE","1.4","mi","TEMP, PRECIP, SNOW","","","PSY, SRG, SNOWBOARD","","","FAA CWO","","","","33","57","43","30.08","29.25","46","8.5","0","-9.0","8","67","46","320","27","0.00","0","0.0","310","20","","","","","","","","","","","","","","","","","","","","","","","","","","","","","","","","","","","","","","","","","","","","","","","","","","","","","","","","","SOD73924 HR PRECIPITATION (IN): 0.00 SNOW DEPTH (IN):0     24 HR SNOWFALL (IN):0.0  24 HR MAX TEMP (F): 6724 HR MIN TEMP (F): 46AVERAGE STATION PRESSURE:29.250 MINIMUM SEA LEVEL PRESSURE:29.98 TIME OF OCCURRENCE:0307 PEAK WIND SPEED (MPH): 27 PEAK WIND DIR (DEG):320 PEAK WIND TIME (LST):      FASTEST 2MIN SPEED (MPH): 20FASTEST 2MIN DIR (DEG):310 FASTEST 2MIN TIME (LST):     AVERAGE WIND SPEED (MPH): 8.5 24 HR AVG TEMP (F): 57DEPART FROM NORMAL: -9  HEATING DEGREE DAYS:  8 COOLING DEGREE DAYS:  0 LATEST DAY MAX TEMP (0700-1900 LST):67  LATEST NIGHT MIN TEMP(1900-0800 LST):49 HOURLY INCREMENTAL PRECIPITATION VALUES (IN):.00 0.00 0.00 0.00 0.00 0.00 0.00 0.00 0.00 0.00 0.00 0.00 0.00 0.00 0.00 0.00 0.00 0.00 0.00 0.00 0.00 0.00 0.00 0.00","SOD  ","6","","","","","","","","","","","","","","","","","","","","","","","","","0522","1918","","2009-06-02"
"72314013881","2020-05-12T00:52:00","FM-15","7","","SE","1.4","mi","TEMP, PRECIP, SNOW","","","PSY, SRG, SNOWBOARD","","","FAA CWO","","","","","","","","","","","","","","","","","","","","","","","","","","","30.19","31","46","0.00","","-0.02","3","56","30.18","CLR:00","29.36","10.00","40","010","","3","","","","","","","","","","","","","","","","","","","","","","","","","","","","","","","","","","","","","MET11505/12/20 00:52:02 METAR KCLT 120552Z 01003KT 10SM CLR 08/M01 A3019 RMK AO2 SLP220 T00781006 10156 20072 53008 (SAC)","FM-15","7","","","","","","","","","","","","","","","","","","","","","","","","","","","","2009-06-02"
"72314013881","2020-05-12T01:00:00","FM-12","4","","SE","1.4","mi","TEMP, PRECIP, SNOW","","","PSY, SRG, SNOWBOARD","","","FAA CWO","","","","","","","","","","","","","","","","","","","","","","","","","","","","31","46","","","-0.02","3","56","30.18","","29.41","9.94","40","010","","3","","","","","","","","","","","","","","","","","","","","","","","","","","","","","","","","","","","","","SYN08072314 32966 00103 10078 21006 39960 40220 53008 90552 333 10156 20072 555 91206=","FM-12","4","","","","","","","","","","","","","","","","","","","","","","","","","","","","2009-06-02"
"72314013881","2020-05-12T01:52:00","FM-15","7","","SE","1.4","mi","TEMP, PRECIP, SNOW","","","PSY, SRG, SNOWBOARD","","","FAA CWO","","","","","","","","","","","","","","","","","","","","","","","","","","","30.19","33","40","0.00","","","","77","30.19","CLR:00","29.36","10.00","37","000","","0","","","","","","","","","","","","","","","","","","","","","","","","","","","","","","","","","","","","","MET09605/12/20 01:52:02 METAR KCLT 120652Z 00000KT 10SM CLR 04/01 A3019 RMK AO2 SLP223 T00440006 (SAC)","FM-15","7","","","","","","","","","","","","","","","","","","","","","","","","","","","","2009-06-02"
"72314013881","2020-05-12T02:52:00","FM-15","7","","SE","1.4","mi","TEMP, PRECIP, SNOW","","","PSY, SRG, SNOWBOARD","","","FAA CWO","","","","","","","","","","","","","","","","","","","","","","","","","","","30.21","34","39","0.00","","","","82","30.20","CLR:00","29.38","10.00","37","350","","3","","","","","","","","","","","","","","","","","","","","","","","","","","","","","","","","","","","","","MET09605/12/20 02:52:02 METAR KCLT 120752Z 35003KT 10SM CLR 04/01 A3021 RMK AO2 SLP228 T00390011 (SAC)","FM-15","7","","","","","","","","","","","","","","","","","","","","","","","","","","","","2009-06-02"
"72314013881","2020-05-12T03:52:00","FM-15","7","","SE","1.4","mi","TEMP, PRECIP, SNOW","","","PSY, SRG, SNOWBOARD","","","FAA CWO","","","","","","","","","","","","","","","","","","","","","","","","","","","30.22","33","40","0.00","","-0.03","3","77","30.22","CLR:00","29.39","10.00","37","340","","3","","","","","","","","","","","","","","","","","","","","","","","","","","","","","","","","","","","","","MET10205/12/20 03:52:02 METAR KCLT 120852Z 34003KT 10SM CLR 04/01 A3022 RMK AO2 SLP233 T00440006 53011 (SAC)","FM-15","7","","","","","","","","","","","","","","","","","","","","","","","","","","","","2009-06-02"
"72314013881","2020-05-12T04:00:00","FM-12","4","","SE","1.4","mi","TEMP, PRECIP, SNOW","","","PSY, SRG, SNOWBOARD","","","FAA CWO","","","","","","","","","","","","","","","","","","","","","","","","","","","","33","40","","","-0.03","3","77","30.22","","29.44","9.94","37","340","","3","","","","","","","","","","","","","","","","","","","","","","","","","","","","","","","","","","","","","SYN06472314 32966 03403 10044 20006 39970 40233 53011 90852 555 91209=","FM-12","4","","","","","","","","","","","","","","","","","","","","","","","","","","","","2009-06-02"
"72314013881","2020-05-12T04:52:00","FM-15","7","","SE","1.4","mi","TEMP, PRECIP, SNOW","","","PSY, SRG, SNOWBOARD","","","FAA CWO","","","","","","","","","","","","","","","","","","","","","","","","","","","30.24","34","39","0.00","","","","82","30.23","CLR:00","29.41","10.00","37","000","","0","","","","","","","","","","","","","","","","","","","","","","","","","","","","","","","","","","","","","MET09605/12/20 04:52:02 METAR KCLT 120952Z 00000KT 10SM CLR 04/01 A3024 RMK AO2 SLP237 T00390011 (SAC)","FM-15","7","","","","","","","","","","","","","","","","","","","","","","","","","","","","2009-06-02"
"72314013881","2020-05-12T05:52:00","FM-15","7","","SE","1.4","mi","TEMP, PRECIP, SNOW","","","PSY, SRG, SNOWBOARD","","","FAA CWO","","","","","","","","","","","","","","","","","","","","","","","","","","","30.25","35","40","0.00","","","","83","30.25","FEW:02 220 BKN:07 250","29.42","10.00","38","000","","0","","","","","","","","","","","","","","","","","","","","","","","","","","","","","","","","","","","","","MET10605/12/20 05:52:02 METAR KCLT 121052Z 00000KT 10SM FEW220 BKN250 04/02 A3025 RMK AO2 SLP243 T00440017 (SAC)","FM-15","7","","","","","","","","","","","","","","","","","","","","","","","","","","","","2009-06-02"
"72314013881","2020-05-12T06:52:00","FM-15","7","","SE","1.4","mi","TEMP, PRECIP, SNOW","","","PSY, SRG, SNOWBOARD","","","FAA CWO","","","","","","","","","","","","","","","","","","","","","","","","","","","30.29","38","47","0.00","","-0.06","3","71","30.28","FEW:02 220 BKN:07 250","29.46","10.00","43","000","","0","","","","","","","","","","","","","","","","","","","","","","","","","","","","","","","","","","","","","MET12405/12/20 06:52:02 METAR KCLT 121152Z 00000KT 10SM FEW220 BKN250 08/03 A3029 RMK AO2 SLP255 T00830033 10089 20022 53021 (SAC)","FM-15","7","","","","","","","","","","","","","","","","","","","","","","","","","","","","2009-06-02"
"72314013881","2020-05-12T07:00:00","FM-12","4","","SE","1.4","mi","TEMP, PRECIP, SNOW","","","PSY, SRG, SNOWBOARD","","","FAA CWO","","","","","","","","","","","","","","","","","","","","","","","","","","","","38","47","","","-0.06","3","71","30.28","","29.51","9.94","43","000","","0","","","","","","","","","","","","","","","","","","","","","","","","","","","","","","","","","","","","","SYN08072314 32966 60000 10083 20033 39993 40255 53021 91152 333 10194 20022 555 91212=","FM-12","4","","","","","","","","","","","","","","","","","","","","","","","","","","","","2009-06-02"
"72314013881","2020-05-12T07:52:00","FM-15","7","","SE","1.4","mi","TEMP, PRECIP, SNOW","","","PSY, SRG, SNOWBOARD","","","FAA CWO","","","","","","","","","","","","","","","","","","","","","","","","","","","30.32","36","52","0.00","","","","55","30.31","SCT:04 120 SCT:04 200 BKN:07 250","29.49","10.00","45","VRB","","5","","","","","","","","","","","","","","","","","","","","","","","","","","","","","","","","","","","","","MET11205/12/20 07:52:02 METAR KCLT 121252Z VRB04KT 10SM SCT120 SCT200 BKN250 11/02 A3032 RMK AO2 SLP265 T01110022 (DM)","FM-15","7","","","","","","","","","","","","","","","","","","","","","","","","","","","","2009-06-02"
"72314013881","2020-05-12T08:52:00","FM-15","7","","SE","1.4","mi","TEMP, PRECIP, SNOW","","","PSY, SRG, SNOWBOARD","","","FAA CWO","","","","","","","","","","","","","","","","","","","","","","","","","","","30.32","30","55","0.00","","","","38","30.31","BKN:07 110 BKN:07 250","29.49","10.00","44","330","","8","","","","","","","","","","","","","","","","","","","","","","","","","","","","","","","","","","","","","MET10605/12/20 08:52:02 METAR KCLT 121352Z 33007KT 10SM BKN110 BKN250 13/M01 A3032 RMK AO2 SLP265 T01281011 (DM)","FM-15","7","","","","","","","","","","","","","","","","","","","","","","","","","","","","2009-06-02"
"72314013881","2020-05-12T09:52:00","FM-15","7","","SE","1.4","mi","TEMP, PRECIP, SNOW","","","PSY, SRG, SNOWBOARD","","","FAA CWO","","","","","","","","","","","","","","","","","","","","","","","","","","","30.31","32","55","0.00","","-0.02","0","42","30.30","FEW:02 85 BKN:07 100 OVC:08 250","29.48","10.00","45","320","","3","","","","","","","","","","","","","","","","","","","","","","","","","","","","","","","","","","","","","MET11805/12/20 09:52:02 METAR KCLT 121452Z 32003KT 10SM FEW085 BKN100 OVC250 13/00 A3031 RMK AO2 SLP262 T01280000 50007 (DM)","FM-15","7","","","","","","","","","","","","","","","","","","","","","","","","","","","","2009-06-02"
"72314013881","2020-05-12T10:00:00","FM-12","4","","SE","1.4","mi","TEMP, PRECIP, SNOW","","","PSY, SRG, SNOWBOARD","","","FAA CWO","","","","","","","","","","","","","","","","","","","","","","","","","","","","32","55","","","0.02","9","42","30.30","","29.53","9.94","45","320","","3","","","","","","","","","","","","","","","","","","","","","","","","","","","","","","","","","","","","","SYN06472314 32966 83203 10128 20000 39999 40262 50007 91452 555 91215=","FM-12","4","","","","","","","","","","","","","","","","","","","","","","","","","","","","2009-06-02"
"72314013881","2020-05-12T10:52:00","FM-15","7","","SE","1.4","mi","TEMP, PRECIP, SNOW","","","PSY, SRG, SNOWBOARD","","","FAA CWO","","","","","","","","","","","","","","","","","","","","","","","","","","","30.30","29","56","0.00","","","","36","30.29","BKN:07 90 BKN:07 250","29.47","10.00","44","350","","7","","","","","","","","","","","","","","","","","","","","","","","","","","","","","","","","","","","","","MET10605/12/20 10:52:02 METAR KCLT 121552Z 35006KT 10SM BKN090 BKN250 13/M02 A3030 RMK AO2 SLP259 T01331017 (DM)","FM-15","7","","","","","","","","","","","","","","","","","","","","","","","","","","","","2009-06-02"
"72314013881","2020-05-12T11:52:00","FM-15","7","","SE","1.4","mi","TEMP, PRECIP, SNOW","","","PSY, SRG, SNOWBOARD","","","FAA CWO","","","","","","","","","","","","","","","","","","","","","","","","","","","30.28","32","58","0.00","","","","38","30.27","BKN:07 85 BKN:07 100 BKN:07 250","29.45","10.00","46","VRB","","6","","","","","","","","","","","","","","","","","","","","","","","","","","","","","","","","","","","","","MET11305/12/20 11:52:02 METAR KCLT 121652Z VRB05KT 10SM BKN085 BKN100 BKN250 14/00 A3028 RMK AO2 SLP251 T01440000 (DJS)","FM-15","7","","","","","","","","","","","","","","","","","","","","","","","","","","","","2009-06-02"
"72314013881","2020-05-12T12:52:00","FM-15","7","","SE","1.4","mi","TEMP, PRECIP, SNOW","","","PSY, SRG, SNOWBOARD","","","FAA CWO","","","","","","","","","","","","","","","","","","","","","","","","","","","30.25","31","61","0.00","","+0.05","8","32","30.25","SCT:04 90 BKN:07 150 BKN:07 250","29.42","10.00","47","300","","8","","","","","","","","","","","","","","","","","","","","","","","","","","","","","","","","","","","","","MET13405/12/20 12:52:02 METAR KCLT 121752Z 30007KT 10SM SCT090 BKN150 BKN250 16/M01 A3025 RMK AO2 SLP243 T01611006 10161 20083 58018 $ (DJS)","FM-15","7","","","","","","","","","","","","","","","","","","","","","","","","","","","","2009-06-02"
"72314013881","2020-05-12T13:00:00","FM-12","4","","SE","1.4","mi","TEMP, PRECIP, SNOW","","","PSY, SRG, SNOWBOARD","","","FAA CWO","","","","","","","","","","","","","","","","","","","","","","","","","","","","31","61","","","+0.05","8","32","30.25","","29.47","9.94","47","300","","8","","","","","","","","","","","","","","","","","","","","","","","","","","","","","","","","","","","","","SYN08072314 32966 63007 10161 21006 39980 40243 58018 91752 333 10161 20083 555 91218=","FM-12","4","","","","","","","","","","","","","","","","","","","","","","","","","","","","2009-06-02"
"72314013881","2020-05-12T13:52:00","FM-15","7","","SE","1.4","mi","TEMP, PRECIP, SNOW","","","PSY, SRG, SNOWBOARD","","","FAA CWO","","","","","","","","","","","","","","","","","","","","","","","","","","","30.24","32","62","0.00","","","","32","30.24","FEW:02 90 SCT:04 150 SCT:04 250","29.41","10.00","48","260","","8","","","","","","","","","","","","","","","","","","","","","","","","","","","","","","","","","","","","","MET11305/12/20 13:52:02 METAR KCLT 121852Z 26007KT 10SM FEW090 SCT150 SCT250 17/00 A3024 RMK AO2 SLP239 T01670000 (DJS)","FM-15","7","","","","","","","","","","","","","","","","","","","","","","","","","","","","2009-06-02"
"72314013881","2020-05-12T14:52:00","FM-15","7","","SE","1.4","mi","TEMP, PRECIP, SNOW","","","PSY, SRG, SNOWBOARD","","","FAA CWO","","","","","","","","","","","","","","","","","","","","","","","","","","","30.22","32","63","0.00","","","","31","30.22","FEW:02 160 SCT:04 250","29.39","10.00","48","VRB","","6","","","","","","","","","","","","","","","","","","","","","","","","","","","","","","","","","","","","","MET10605/12/20 14:52:02 METAR KCLT 121952Z VRB05KT 10SM FEW160 SCT250 17/00 A3022 RMK AO2 SLP234 T01720000 (DJS)","FM-15","7","","","","","","","","","","","","","","","","","","","","","","","","","","","","2009-06-02"
"72314013881","2020-05-12T15:52:00","FM-15","7","","SE","1.4","mi","TEMP, PRECIP, SNOW","","","PSY, SRG, SNOWBOARD","","","FAA CWO","","","","","","","","","","","","","","","","","","","","","","","","","","","30.21","34","65","0.00","","+0.04","7","32","30.20","FEW:02 80 FEW:02 160 BKN:07 230","29.38","10.00","50","240","","8","","","","","","","","","","","","","","","","","","","","","","","","","","","","","","","","","","","","","MET11905/12/20 15:52:02 METAR KCLT 122052Z 24007KT 10SM FEW080 FEW160 BKN230 18/01 A3021 RMK AO2 SLP228 T01830011 57015 (HWC)","FM-15","7","","","","","","","","","","","","","","","","","","","","","","","","","","","","2009-06-02"
"72314013881","2020-05-12T16:00:00","FM-12","4","","SE","1.4","mi","TEMP, PRECIP, SNOW","","","PSY, SRG, SNOWBOARD","","","FAA CWO","","","","","","","","","","","","","","","","","","","","","","","","","","","","34","65","","","+0.04","7","32","30.20","74","29.43","9.94","50","240","","8","","","","","","","","","","","","","","","","","","","","","","","","","","","","","","","","","","","","","SYN06472314 32866 62407 10183 20011 39966 40228 57015 92052 555 91221=","FM-12","4","","","","","","","","","","","","","","","","","","","","","","","","","","","","2009-06-02"
"72314013881","2020-05-12T16:52:00","FM-15","7","","SE","1.4","mi","TEMP, PRECIP, SNOW","","","PSY, SRG, SNOWBOARD","","","FAA CWO","","","","","","","","","","","","","","","","","","","","","","","","","","","30.20","35","64","0.00","","","","34","30.19","FEW:02 80 BKN:07 230","29.37","10.00","50","VRB","","5","","","","","","","","","","","","","","","","","","","","","","","","","","","","","","","","","","","","","MET10605/12/20 16:52:02 METAR KCLT 122152Z VRB04KT 10SM FEW080 BKN230 18/02 A3020 RMK AO2 SLP225 T01780017 (HWC)","FM-15","7","","","","","","","","","","","","","","","","","","","","","","","","","","","","2009-06-02"
"72314013881","2020-05-12T17:52:00","FM-15","7","","SE","1.4","mi","TEMP, PRECIP, SNOW","","","PSY, SRG, SNOWBOARD","","","FAA CWO","","","","","","","","","","","","","","","","","","","","","","","","","","","30.20","36","65","0.00","","","","34","30.20","FEW:02 85 SCT:04 250","29.37","10.00","51","220","","8","","","","","","","","","","","","","","","","","","","","","","","","","","","","","","","","","","","","","MET10605/12/20 17:52:02 METAR KCLT 122252Z 22007KT 10SM FEW085 SCT250 18/02 A3020 RMK AO2 SLP226 T01830022 (HWC)","FM-15","7","","","","","","","","","","","","","","","","","","","","","","","","","","","","2009-06-02"
"72314013881","2020-05-12T18:52:00","FM-15","7","","SE","1.4","mi","TEMP, PRECIP, SNOW","","","PSY, SRG, SNOWBOARD","","","FAA CWO","","","","","","","","","","","","","","","","","","","","","","","","","","","30.20","39","62","0.00","","+0.00","5","43","30.20","FEW:02 85 BKN:07 250","29.37","10.00","51","210","","3","","","","","","","","","","","","","","","","","","","","","","","","","","","","","","","","","","","","","MET12405/12/20 18:52:02 METAR KCLT 122352Z 21003KT 10SM FEW085 BKN250 17/04 A3020 RMK AO2 SLP226 T01670039 10189 20156 55001 (HWC)","FM-15","7","","","","","","","","","","","","","","","","","","","","","","","","","","","","2009-06-02"
"72314013881","2020-05-12T19:00:00","FM-12","4","","SE","1.4","mi","TEMP, PRECIP, SNOW","","","PSY, SRG, SNOWBOARD","","","FAA CWO","","","","","","","","","","","","","","","","","","","","","","","","","","","","39","62","","","+0.00","5","43","30.20","","29.42","9.94","51","210","","3","","","","","","","","","","","","","","","","","","","","","","","","","","","","","","","","","","","","","SYN08072314 32966 62103 10167 20039 39963 40226 55001 92352 333 10189 20022 555 91300=","FM-12","4","","","","","","","","","","","","","","","","","","","","","","","","","","","","2009-06-02"
"72314013881","2020-05-12T19:52:00","FM-15","7","","SE","1.4","mi","TEMP, PRECIP, SNOW","","","PSY, SRG, SNOWBOARD","","","FAA CWO","","","","","","","","","","","","","","","","","","","","","","","","","","","30.21","40","58","0.00","","","","51","30.20","FEW:02 80 BKN:07 250","29.38","10.00","49","190","","3","","","","","","","","","","","","","","","","","","","","","","","","","","","","","","","","","","","","","MET10005/12/20 19:52:01 METAR KCLT 130052Z 19003KT 10SM FEW080 BKN250 14/04 A3021 RMK AO2 SLP228 T01440044","FM-15","7","","","","","","","","","","","","","","","","","","","","","","","","","","","","2009-06-02"
"72314013881","2020-05-12T20:52:00","FM-15","7","","SE","1.4","mi","TEMP, PRECIP, SNOW","","","PSY, SRG, SNOWBOARD","","","FAA CWO","","","","","","","","","","","","","","","","","","","","","","","","","","","30.22","42","56","0.00","","","","60","30.21","BKN:07 250","29.39","10.00","49","140","","5","","","","","","","","","","","","","","","","","","","","","","","","","","","","","","","","","","","","","MET09305/12/20 20:52:01 METAR KCLT 130152Z 14004KT 10SM BKN250 13/06 A3022 RMK AO2 SLP230 T01330056","FM-15","7","","","","","","","","","","","","","","","","","","","","","","","","","","","","2009-06-02"
"72314013881","2020-05-12T21:52:00","FM-15","7","","SE","1.4","mi","TEMP, PRECIP, SNOW","","","PSY, SRG, SNOWBOARD","","","FAA CWO","","","","","","","","","","","","","","","","","","","","","","","","","","","30.24","42","56","0.00","","-0.03","3","60","30.23","FEW:02 100 BKN:07 250","29.41","10.00","49","150","","5","","","","","","","","","","","","","","","","","","","","","","","","","","","","","","","","","","","","","MET10605/12/20 21:52:01 METAR KCLT 130252Z 15004KT 10SM FEW100 BKN250 13/06 A3024 RMK AO2 SLP236 T01330056 53010","FM-15","7","","","","","","","","","","","","","","","","","","","","","","","","","","","","2009-06-02"
"72314013881","2020-05-12T22:00:00","FM-12","4","","SE","1.4","mi","TEMP, PRECIP, SNOW","","","PSY, SRG, SNOWBOARD","","","FAA CWO","","","","","","","","","","","","","","","","","","","","","","","","","","","","42","56","","","-0.03","3","60","30.23","","29.46","9.94","49","150","","5","","","","","","","","","","","","","","","","","","","","","","","","","","","","","","","","","","","","","SYN06472314 32966 61504 10133 20056 39976 40236 53010 90252 555 91303=","FM-12","4","","","","","","","","","","","","","","","","","","","","","","","","","","","","2009-06-02"
"72314013881","2020-05-12T22:52:00","FM-15","7","","SE","1.4","mi","TEMP, PRECIP, SNOW","","","PSY, SRG, SNOWBOARD","","","FAA CWO","","","","","","","","","","","","","","","","","","","","","","","","","","","30.23","42","56","0.00","","","","60","30.22","SCT:04 200 BKN:07 250","29.40","10.00","49","000","","0","","","","","","","","","","","","","","","","","","","","","","","","","","","","","","","","","","","","","MET10005/12/20 22:52:02 METAR KCLT 130352Z 00000KT 10SM SCT200 BKN250 13/06 A3023 RMK AO2 SLP235 T01330056","FM-15","7","","","","","","","","","","","","","","","","","","","","","","","","","","","","2009-06-02"
"72314013881","2020-05-12T23:52:00","FM-15","7","","SE","1.4","mi","TEMP, PRECIP, SNOW","","","PSY, SRG, SNOWBOARD","","","FAA CWO","","","","","","","","","","","","","","","","","","","","","","","","","","","30.23","42","56","0.00","","","","60","30.22","BKN:07 200 BKN:07 250","29.40","10.00","49","150","","5","","","","","","","","","","","","","","","","","","","","","","","","","","","","","","","","","","","","","MET11005/12/20 23:52:02 METAR KCLT 130452Z 15004KT 10SM BKN200 BKN250 13/06 A3023 RMK AO2 SLP234 T01330056 401890022","FM-15","7","","","","","","","","","","","","","","","","","","","","","","","","","","","","2009-06-02"
"72314013881","2020-05-12T23:59:00","SOD  ","6","","SE","1.4","mi","TEMP, PRECIP, SNOW","","","PSY, SRG, SNOWBOARD","","","FAA CWO","","","","35","51","53","30.23","29.40","45","4.3","0","-15.2","14","66","36","320","15","0.00","0","0.0","280","12","","","","","","","","","","","","","","","","","","","","","","","","","","","","","","","","","","","","","","","","","","","","","","","","","","","","","","","","","SOD73924 HR PRECIPITATION (IN): 0.00 SNOW DEPTH (IN):0     24 HR SNOWFALL (IN):0.0  24 HR MAX TEMP (F): 6624 HR MIN TEMP (F): 36AVERAGE STATION PRESSURE:29.400 MINIMUM SEA LEVEL PRESSURE:30.17 TIME OF OCCURRENCE:0010 PEAK WIND SPEED (MPH): 15 PEAK WIND DIR (DEG):320 PEAK WIND TIME (LST):      FASTEST 2MIN SPEED (MPH): 12FASTEST 2MIN DIR (DEG):280 FASTEST 2MIN TIME (LST):     AVERAGE WIND SPEED (MPH): 4.3 24 HR AVG TEMP (F): 51DEPART FROM NORMAL:-15  HEATING DEGREE DAYS: 14 COOLING DEGREE DAYS:  0 LATEST DAY MAX TEMP (0700-1900 LST):66  LATEST NIGHT MIN TEMP(1900-0800 LST):36 HOURLY INCREMENTAL PRECIPITATION VALUES (IN):.00 0.00 0.00 0.00 0.00 0.00 0.00 0.00 0.00 0.00 0.00 0.00 0.00 0.00 0.00 0.00 0.00 0.00 0.00 0.00 0.00 0.00 0.00 0.00","SOD  ","6","","","","","","","","","","","","","","","","","","","","","","","","","0522","1919","","2009-06-02"
"72314013881","2020-05-13T00:52:00","FM-15","7","","SE","1.4","mi","TEMP, PRECIP, SNOW","","","PSY, SRG, SNOWBOARD","","","FAA CWO","","","","","","","","","","","","","","","","","","","","","","","","","","","30.24","44","55","0.00","","+0.00","5","67","30.23","SCT:04 150 OVC:08 180","29.41","10.00","49","000","","0","","","","","","","","","","","","","","","","","","","","","","","","","","","","","","","","","","","","","MET12405/13/20 00:52:02 METAR KCLT 130552Z 00000KT 10SM SCT150 OVC180 13/07 A3024 RMK AO2 SLP236 T01280067 10167 20122 55000 (SAC)","FM-15","7","","","","","","","","","","","","","","","","","","","","","","","","","","","","2009-06-02"
"72314013881","2020-05-13T01:00:00","FM-12","4","","SE","1.4","mi","TEMP, PRECIP, SNOW","","","PSY, SRG, SNOWBOARD","","","FAA CWO","","","","","","","","","","","","","","","","","","","","","","","","","","","","44","55","","","+0.00","5","67","30.23","","29.46","9.94","49","000","","0","","","","","","","","","","","","","","","","","","","","","","","","","","","","","","","","","","","","","SYN08072314 32966 80000 10128 20067 39976 40236 55000 90552 333 10167 20022 555 91306=","FM-12","4","","","","","","","","","","","","","","","","","","","","","","","","","","","","2009-06-02"
"72314013881","2020-05-13T01:52:00","FM-15","7","","SE","1.4","mi","TEMP, PRECIP, SNOW","","","PSY, SRG, SNOWBOARD","","","FAA CWO","","","","","","","","","","","","","","","","","","","","","","","","","","","30.24","44","54","T","|RA |RA","","","69","30.23","FEW:02 75 BKN:07 95 BKN:07 120","29.41","10.00","49","350","","3","","","","","","","","","","","","","","","","","","","","","","","","","","","","","","","","","","","","","MET12905/13/20 01:52:02 METAR KCLT 130652Z 35003KT 10SM -RA FEW075 BKN095 BKN120 12/07 A3024 RMK AO2 RAB48 SLP237 P0000 T01220067 (SAC)","FM-15","7","","","","","","","","","","","","","","","","","","","","","","","","","","","","2009-06-02"
"72314013881","2020-05-13T02:52:00","FM-15","7","","SE","1.4","mi","TEMP, PRECIP, SNOW","","","PSY, SRG, SNOWBOARD","","","FAA CWO","","","","","","","","","","","","","","","","","","","","","","","","","","","30.26","46","53","0.01","-RA:02 |RA |RA","","","77","30.25","OVC:08 95","29.43","10.00","49","010","","5","","","","","","","","","","","","","","","","","","","","","","","","","","","","","","","","","","","","","MET10905/13/20 02:52:02 METAR KCLT 130752Z 01004KT 10SM -RA OVC095 12/08 A3026 RMK AO2 SLP245 P0001 T01170078 (SAC)","FM-15","7","","","","","","","","","","","","","","","","","","","","","","","","","","","","2009-06-02"
"72314013881","2020-05-13T03:52:00","FM-15","7","","SE","1.4","mi","TEMP, PRECIP, SNOW","","","PSY, SRG, SNOWBOARD","","","FAA CWO","","","","","","","","","","","","","","","","","","","","","","","","","","","30.28","47","56","0.01","-RA:02 |RA |RA","-0.04","3","72","30.26","OVC:08 90","29.45","10.00","51","090","","5","","","","","","","","","","","","","","","","","","","","","","","","","","","","","","","","","","","","","MET12105/13/20 03:52:02 METAR KCLT 130852Z 09004KT 10SM -RA OVC090 13/08 A3028 RMK AO2 SLP248 P0001 60002 T01330083 53014 (SAC)","FM-15","7","","","","","","","","","","","","","","","","","","","","","","","","","","","","2009-06-02"
"72314013881","2020-05-13T04:00:00","FM-12","4","","SE","1.4","mi","TEMP, PRECIP, SNOW","","","PSY, SRG, SNOWBOARD","","","FAA CWO","","","","","","","","","","","","","","","","","","","","","","","","","","","","47","56","","||RA","-0.04","3","72","30.26","","29.50","9.94","51","090","","5","","","","","","","","","","","","","","","","","","","","","","","","","","","","","","","","","","","","","SYN07672314 11966 80904 10133 20083 39989 40248 53014 69957 761// 90852 555 91309=","FM-12","4","","","","","","","","","","","","","","","","","","","","","","","","","","","","2009-06-02"
"72314013881","2020-05-13T04:52:00","FM-15","7","","SE","1.4","mi","TEMP, PRECIP, SNOW","","","PSY, SRG, SNOWBOARD","","","FAA CWO","","","","","","","","","","","","","","","","","","","","","","","","","","","30.29","49","54","T","","","","83","30.28","OVC:08 65","29.46","10.00","51","030","","3","","","","","","","","","","","","","","","","","","","","","","","","","","","","","","","","","","","","","MET11105/13/20 04:52:02 METAR KCLT 130952Z 03003KT 10SM OVC065 12/09 A3029 RMK AO2 RAE34 SLP253 P0000 T01220094 (SAC)","FM-15","7","","","","","","","","","","","","","","","","","","","","","","","","","","","","2009-06-02"
"72314013881","2020-05-13T05:52:00","FM-15","7","","SE","1.4","mi","TEMP, PRECIP, SNOW","","","PSY, SRG, SNOWBOARD","","","FAA CWO","","","","","","","","","","","","","","","","","","","","","","","","","","","30.32","47","54","0.00","","","","77","30.30","OVC:08 60","29.49","10.00","50","360","","5","","","","","","","","","","","","","","","","","","","","","","","","","","","","","","","","","","","","","MET09905/13/20 05:52:02 METAR KCLT 131052Z 36004KT 10SM OVC060 12/08 A3032 RMK AO2 SLP262 T01220083 (SAC)","FM-15","7","","","","","","","","","","","","","","","","","","","","","","","","","","","","2009-06-02"
"72314013881","2020-05-13T06:52:00","FM-15","7","","SE","1.4","mi","TEMP, PRECIP, SNOW","","","PSY, SRG, SNOWBOARD","","","FAA CWO","","","","","","","","","","","","","","","","","","","","","","","","","","","30.34","47","53","0.00","","-0.06","3","80","30.33","OVC:08 65","29.51","10.00","50","030","","7","","","","","","","","","","","","","","","","","","","","","","","","","","","","","","","","","","","","","MET12905/13/20 06:52:02 METAR KCLT 131152Z 03006KT 10SM OVC065 12/08 A3034 RMK AO2 SLP271 60002 70002 T01170083 10133 20111 53021 (SAC)","FM-15","7","","","","","","","","","","","","","","","","","","","","","","","","","","","","2009-06-02"
"72314013881","2020-05-13T07:00:00","FM-12","4","","SE","1.4","mi","TEMP, PRECIP, SNOW","","","PSY, SRG, SNOWBOARD","","","FAA CWO","","","","","","","","","","","","","","","","","","","","","","","","","","","","47","53","","","-0.06","3","80","30.33","57","29.56","9.94","50","030","","7","","","","","","","","","","","","","","","","","","","","","","","","","","","","","","","","","","","","","SYN09272314 12766 80306 10117 20083 30009 40271 53021 69951 91152 333 10189 20111 70005 555 91312=","FM-12","4","","","","","","","","","","","","","","","","","","","","","","","","","","","","2009-06-02"
"72314013881","2020-05-13T07:52:00","FM-15","7","","SE","1.4","mi","TEMP, PRECIP, SNOW","","","PSY, SRG, SNOWBOARD","","","FAA CWO","","","","","","","","","","","","","","","","","","","","","","","","","","","30.34","47","55","0.00","","","","74","30.34","BKN:07 65 OVC:08 140","29.51","10.00","51","040","","7","","","","","","","","","","","","","","","","","","","","","","","","","","","","","","","","","","","","","MET10605/13/20 07:52:02 METAR KCLT 131252Z 04006KT 10SM BKN065 OVC140 13/08 A3034 RMK AO2 SLP273 T01280083 (DJS)","FM-15","7","","","","","","","","","","","","","","","","","","","","","","","","","","","","2009-06-02"
"72314013881","2020-05-13T08:52:00","FM-15","7","","SE","1.4","mi","TEMP, PRECIP, SNOW","","","PSY, SRG, SNOWBOARD","","","FAA CWO","","","","","","","","","","","","","","","","","","","","","","","","","","","30.35","48","56","0.00","","","","75","30.35","BKN:07 60 OVC:08 130","29.52","10.00","52","020","","5","","","","","","","","","","","","","","","","","","","","","","","","","","","","","","","","","","","","","MET10605/13/20 08:52:02 METAR KCLT 131352Z 02004KT 10SM BKN060 OVC130 13/09 A3035 RMK AO2 SLP277 T01330089 (DJS)","FM-15","7","","","","","","","","","","","","","","","","","","","","","","","","","","","","2009-06-02"
"72314013881","2020-05-13T09:52:00","FM-15","7","","SE","1.4","mi","TEMP, PRECIP, SNOW","","","PSY, SRG, SNOWBOARD","","","FAA CWO","","","","","","","","","","","","","","","","","","","","","","","","","","","30.36","48","58","0.00","","-0.01","1","70","30.35","FEW:02 50 BKN:07 80 OVC:08 130","29.53","10.00","53","VRB","","5","","","","","","","","","","","","","","","","","","","","","","","","","","","","","","","","","","","","","MET11905/13/20 09:52:02 METAR KCLT 131452Z VRB04KT 10SM FEW050 BKN080 OVC130 14/09 A3036 RMK AO2 SLP277 T01440089 51005 (DJS)","FM-15","7","","","","","","","","","","","","","","","","","","","","","","","","","","","","2009-06-02"
"72314013881","2020-05-13T10:00:00","FM-12","4","","SE","1.4","mi","TEMP, PRECIP, SNOW","","","PSY, SRG, SNOWBOARD","","","FAA CWO","","","","","","","","","","","","","","","","","","","","","","","","","","","","48","58","","","-0.01","1","70","30.35","57","29.58","9.94","53","","","5","","","","","","","","","","","","","","","","","","","","","","","","","","","","","","","","","","","","","SYN06472314 32766 8//04 10144 20089 30016 40277 51005 91452 555 91315=","FM-12","4","","","","","","","","","","","","","","","","","","","","","","","","","","","","2009-06-02"
"72314013881","2020-05-13T10:52:00","FM-15","7","","SE","1.4","mi","TEMP, PRECIP, SNOW","","","PSY, SRG, SNOWBOARD","","","FAA CWO","","","","","","","","","","","","","","","","","","","","","","","","","","","30.36","50","61","0.00","","","","67","30.35","FEW:02 50 BKN:07 85 OVC:08 120","29.53","10.00","55","VRB","","5","","","","","","","","","","","","","","","","","","","","","","","","","","","","","","","","","","","","","MET11305/13/20 10:52:02 METAR KCLT 131552Z VRB04KT 10SM FEW050 BKN085 OVC120 16/10 A3036 RMK AO2 SLP278 T01610100 (DJS)","FM-15","7","","","","","","","","","","","","","","","","","","","","","","","","","","","","2009-06-02"
"72314013881","2020-05-13T11:52:00","FM-15","7","","SE","1.4","mi","TEMP, PRECIP, SNOW","","","PSY, SRG, SNOWBOARD","","","FAA CWO","","","","","","","","","","","","","","","","","","","","","","","","","","","30.35","48","63","0.00","","","","58","30.34","FEW:02 20 BKN:07 95 OVC:08 130","29.52","10.00","55","VRB","","6","","","","","","","","","","","","","","","","","","","","","","","","","","","","","","","","","","","","","MET11305/13/20 11:52:02 METAR KCLT 131652Z VRB05KT 10SM FEW020 BKN095 OVC130 17/09 A3035 RMK AO2 SLP273 T01720089 (DJS)","FM-15","7","","","","","","","","","","","","","","","","","","","","","","","","","","","","2009-06-02"
"72314013881","2020-05-13T12:52:00","FM-15","7","","SE","1.4","mi","TEMP, PRECIP, SNOW","","","PSY, SRG, SNOWBOARD","","","FAA CWO","","","","","","","","","","","","","","","","","","","","","","","","","","","30.33","48","64","0.00","","+0.03","8","56","30.32","FEW:02 25 BKN:07 100 BKN:07 200","29.50","10.00","55","120","","5","","","","","","","","","","","","","","","","","","","","","","","","","","","","","","","","","","","","","MET13105/13/20 12:52:02 METAR KCLT 131752Z 12004KT 10SM FEW025 BKN100 BKN200 18/09 A3033 RMK AO2 SLP267 T01780089 10183 20117 58009 (DJS)","FM-15","7","","","","","","","","","","","","","","","","","","","","","","","","","","","","2009-06-02"
"72314013881","2020-05-13T13:00:00","FM-12","4","","SE","1.4","mi","TEMP, PRECIP, SNOW","","","PSY, SRG, SNOWBOARD","","","FAA CWO","","","","","","","","","","","","","","","","","","","","","","","","","","","","48","64","","","+0.03","8","56","30.32","26","29.55","9.94","55","120","","5","","","","","","","","","","","","","","","","","","","","","","","","","","","","","","","","","","","","","SYN08072314 32566 61204 10178 20089 30006 40267 58009 91752 333 10183 20117 555 91318=","FM-12","4","","","","","","","","","","","","","","","","","","","","","","","","","","","","2009-06-02"
"72314013881","2020-05-13T13:52:00","FM-15","7","","SE","1.4","mi","TEMP, PRECIP, SNOW","","","PSY, SRG, SNOWBOARD","","","FAA CWO","","","","","","","","","","","","","","","","","","","","","","","","","","","30.31","49","68","0.00","","","","51","30.30","FEW:02 40 SCT:04 80 BKN:07 250","29.48","10.00","57","000","","0","","","","","","","","","","","","","","","","","","","","","","","","","","","","","","","","","","","","","MET11305/13/20 13:52:02 METAR KCLT 131852Z 00000KT 10SM FEW040 SCT080 BKN250 20/09 A3031 RMK AO2 SLP260 T02000094 (DJS)","FM-15","7","","","","","","","","","","","","","","","","","","","","","","","","","","","","2009-06-02"
"72314013881","2020-05-13T14:52:00","FM-15","7","","SE","1.4","mi","TEMP, PRECIP, SNOW","","","PSY, SRG, SNOWBOARD","","","FAA CWO","","","","","","","","","","","","","","","","","","","","","","","","","","","30.29","48","70","0.00","","","","46","30.27","FEW:02 40 BKN:07 110 BKN:07 250","29.46","10.00","58","070","","6","","","","","","","","","","","","","","","","","","","","","","","","","","","","","","","","","","","","","MET11305/13/20 14:52:02 METAR KCLT 131952Z 07005KT 10SM FEW040 BKN110 BKN250 21/09 A3029 RMK AO2 SLP252 T02110089 (DJS)","FM-15","7","","","","","","","","","","","","","","","","","","","","","","","","","","","","2009-06-02"
"72314013881","2020-05-13T15:52:00","FM-15","7","","SE","1.4","mi","TEMP, PRECIP, SNOW","","","PSY, SRG, SNOWBOARD","","","FAA CWO","","","","","","","","","","","","","","","","","","","","","","","","","","","30.28","48","68","0.00","","+0.04","6","49","30.27","FEW:02 40 BKN:07 80 BKN:07 250","29.45","10.00","57","260","","3","","","","","","","","","","","","","","","","","","","","","","","","","","","","","","","","","","","","","MET11905/13/20 15:52:02 METAR KCLT 132052Z 26003KT 10SM FEW040 BKN080 BKN250 20/09 A3028 RMK AO2 SLP251 T02000089 56015 (HWC)","FM-15","7","","","","","","","","","","","","","","","","","","","","","","","","","","","","2009-06-02"
"72314013881","2020-05-13T16:00:00","FM-12","4","","SE","1.4","mi","TEMP, PRECIP, SNOW","","","PSY, SRG, SNOWBOARD","","","FAA CWO","","","","","","","","","","","","","","","","","","","","","","","","","","","","48","68","","","+0.04","6","49","30.27","41","29.50","9.94","57","260","","3","","","","","","","","","","","","","","","","","","","","","","","","","","","","","","","","","","","","","SYN06472314 32666 62603 10200 20089 39989 40251 56015 92052 555 91321=","FM-12","4","","","","","","","","","","","","","","","","","","","","","","","","","","","","2009-06-02"
"72314013881","2020-05-13T16:52:00","FM-15","7","","SE","1.4","mi","TEMP, PRECIP, SNOW","","","PSY, SRG, SNOWBOARD","","","FAA CWO","","","","","","","","","","","","","","","","","","","","","","","","","","","30.28","48","69","0.00","","","","47","30.27","BKN:07 85 BKN:07 110","29.45","10.00","57","230","","5","","","","","","","","","","","","","","","","","","","","","","","","","","","","","","","","","","","","","MET10605/13/20 16:52:02 METAR KCLT 132152Z 23004KT 10SM BKN085 BKN110 21/09 A3028 RMK AO2 SLP251 T02060089 (HWC)","FM-15","7","","","","","","","","","","","","","","","","","","","","","","","","","","","","2009-06-02"
"72314013881","2020-05-13T17:52:00","FM-15","7","","SE","1.4","mi","TEMP, PRECIP, SNOW","","","PSY, SRG, SNOWBOARD","","","FAA CWO","","","","","","","","","","","","","","","","","","","","","","","","","","","30.28","50","68","0.00","","","","53","30.27","BKN:07 95 BKN:07 110","29.45","10.00","58","000","","0","","","","","","","","","","","","","","","","","","","","","","","","","","","","","","","","","","","","","MET10605/13/20 17:52:02 METAR KCLT 132252Z 00000KT 10SM BKN095 BKN110 20/10 A3028 RMK AO2 SLP250 T02000100 (HWC)","FM-15","7","","","","","","","","","","","","","","","","","","","","","","","","","","","","2009-06-02"
"72314013881","2020-05-13T18:52:00","FM-15","7","","SE","1.4","mi","TEMP, PRECIP, SNOW","","","PSY, SRG, SNOWBOARD","","","FAA CWO","","","","","","","","","","","","","","","","","","","","","","","","","","","30.29","53","64","0.00","","-0.00","3","68","30.28","FEW:02 40 BKN:07 95 BKN:07 110","29.46","10.00","58","000","","0","","","","","","","","","","","","","","","","","","","","","","","","","","","","","","","","","","","","","MET13105/13/20 18:52:02 METAR KCLT 132352Z 00000KT 10SM FEW040 BKN095 BKN110 18/12 A3029 RMK AO2 SLP253 T01780117 10217 20178 53001 (HWC)","FM-15","7","","","","","","","","","","","","","","","","","","","","","","","","","","","","2009-06-02"
"72314013881","2020-05-13T19:00:00","FM-12","4","","SE","1.4","mi","TEMP, PRECIP, SNOW","","","PSY, SRG, SNOWBOARD","","","FAA CWO","","","","","","","","","","","","","","","","","","","","","","","","","","","","53","64","","","-0.00","3","68","30.28","41","29.51","9.94","58","000","","0","","","","","","","","","","","","","","","","","","","","","","","","","","","","","","","","","","","","","SYN08072314 32666 60000 10178 20117 39993 40253 53001 92352 333 10217 20111 555 91400=","FM-12","4","","","","","","","","","","","","","","","","","","","","","","","","","","","","2009-06-02"
"72314013881","2020-05-13T19:52:00","FM-15","7","","SE","1.4","mi","TEMP, PRECIP, SNOW","","","PSY, SRG, SNOWBOARD","","","FAA CWO","","","","","","","","","","","","","","","","","","","","","","","","","","","30.30","53","63","0.00","","","","70","30.28","FEW:02 90 BKN:07 120","29.47","10.00","57","010","","5","","","","","","","","","","","","","","","","","","","","","","","","","","","","","","","","","","","","","MET10005/13/20 19:52:01 METAR KCLT 140052Z 01004KT 10SM FEW090 BKN120 17/12 A3030 RMK AO2 SLP255 T01720117","FM-15","7","","","","","","","","","","","","","","","","","","","","","","","","","","","","2009-06-02"
"72314013881","2020-05-13T20:52:00","FM-15","7","","SE","1.4","mi","TEMP, PRECIP, SNOW","","","PSY, SRG, SNOWBOARD","","","FAA CWO","","","","","","","","","","","","","","","","","","","","","","","","","","","30.30","52","65","0.00","","","","63","30.29","BKN:07 110","29.47","10.00","58","030","","6","","","","","","","","","","","","","","","","","","","","","","","","","","","","","","","","","","","","","MET09305/13/20 20:52:01 METAR KCLT 140152Z 03005KT 10SM BKN110 18/11 A3030 RMK AO2 SLP257 T01830111","FM-15","7","","","","","","","","","","","","","","","","","","","","","","","","","","","","2009-06-02"
"72314013881","2020-05-13T21:52:00","FM-15","7","","SE","1.4","mi","TEMP, PRECIP, SNOW","","","PSY, SRG, SNOWBOARD","","","FAA CWO","","","","","","","","","","","","","","","","","","","","","","","","","","","30.31","52","63","0.00","","-0.02","3","68","30.30","SCT:04 120","29.48","10.00","57","050","","6","","","","","","","","","","","","","","","","","","","","","","","","","","","","","","","","","","","","","MET09905/13/20 21:52:01 METAR KCLT 140252Z 05005KT 10SM SCT120 17/11 A3031 RMK AO2 SLP260 T01720111 53008","FM-15","7","","","","","","","","","","","","","","","","","","","","","","","","","","","","2009-06-02"
"72314013881","2020-05-13T22:00:00","FM-12","4","","SE","1.4","mi","TEMP, PRECIP, SNOW","","","PSY, SRG, SNOWBOARD","","","FAA CWO","","","","","","","","","","","","","","","","","","","","","","","","","","","","52","63","","","-0.02","3","68","30.30","","29.53","9.94","57","050","","6","","","","","","","","","","","","","","","","","","","","","","","","","","","","","","","","","","","","","SYN06472314 32966 40505 10172 20111 39999 40260 53008 90252 555 91403=","FM-12","4","","","","","","","","","","","","","","","","","","","","","","","","","","","","2009-06-02"
"72314013881","2020-05-13T22:52:00","FM-15","7","","SE","1.4","mi","TEMP, PRECIP, SNOW","","","PSY, SRG, SNOWBOARD","","","FAA CWO","","","","","","","","","","","","","","","","","","","","","","","","","","","30.31","51","62","0.00","","","","67","30.29","FEW:02 120","29.48","10.00","56","070","","6","","","","","","","","","","","","","","","","","","","","","","","","","","","","","","","","","","","","","MET09305/13/20 22:52:02 METAR KCLT 140352Z 07005KT 10SM FEW120 17/11 A3031 RMK AO2 SLP258 T01670106","FM-15","7","","","","","","","","","","","","","","","","","","","","","","","","","","","","2009-06-02"
"72314013881","2020-05-13T23:52:00","FM-15","7","","SE","1.4","mi","TEMP, PRECIP, SNOW","","","PSY, SRG, SNOWBOARD","","","FAA CWO","","","","","","","","","","","","","","","","","","","","","","","","","","","30.31","51","61","0.00","","","","70","30.29","FEW:02 60","29.48","10.00","56","090","","5","","","","","","","","","","","","","","","","","","","","","","","","","","","","","","","","","","","","","MET10305/13/20 23:52:02 METAR KCLT 140452Z 09004KT 10SM FEW060 16/11 A3031 RMK AO2 SLP259 T01610106 402170111","FM-15","7","","","","","","","","","","","","","","","","","","","","","","","","","","","","2009-06-02"
"72314013881","2020-05-13T23:59:00","SOD  ","6","","SE","1.4","mi","TEMP, PRECIP, SNOW","","","PSY, SRG, SNOWBOARD","","","FAA CWO","","","","49","62","66","30.29","29.47","54","4.1","0","-4.5","3","71","52","070","16","0.02","0","0.0","040","10","RA","","","","","","","","","","","","","","","","","","","","","","","","","","","","","","","","","","","","","","","","","","","","","","","","","","","","","","","","SOD73924 HR PRECIPITATION (IN): 0.02 SNOW DEPTH (IN):0     24 HR SNOWFALL (IN):0.0  24 HR MAX TEMP (F): 7124 HR MIN TEMP (F): 52AVERAGE STATION PRESSURE:29.465 MINIMUM SEA LEVEL PRESSURE:30.22 TIME OF OCCURRENCE:0111 PEAK WIND SPEED (MPH): 16 PEAK WIND DIR (DEG): 70 PEAK WIND TIME (LST):      FASTEST 2MIN SPEED (MPH): 10FASTEST 2MIN DIR (DEG): 40 FASTEST 2MIN TIME (LST):     AVERAGE WIND SPEED (MPH): 4.1 24 HR AVG TEMP (F): 62DEPART FROM NORMAL: -4  HEATING DEGREE DAYS:  3 COOLING DEGREE DAYS:  0 LATEST DAY MAX TEMP (0700-1900 LST):71  LATEST NIGHT MIN TEMP(1900-0800 LST):52 HOURLY INCREMENTAL PRECIPITATION VALUES (IN):.00 T    0.01 0.01 T    0.00 0.00 0.00 0.00 0.00 0.00 0.00 0.00 0.00 0.00 0.00 0.00 0.00 0.00 0.00 0.00 0.00 0.00 0.00","SOD  ","6","","","","","","","","","","","","","","","","","","","","","","","","","0521","1920","","2009-06-02"
"72314013881","2020-05-14T00:52:00","FM-15","7","","SE","1.4","mi","TEMP, PRECIP, SNOW","","","PSY, SRG, SNOWBOARD","","","FAA CWO","","","","","","","","","","","","","","","","","","","","","","","","","","","30.30","51","58","0.00","","+0.01","8","78","30.29","FEW:02 60","29.47","10.00","54","000","","0","","","","","","","","","","","","","","","","","","","","","","","","","","","","","","","","","","","","","MET11705/14/20 00:52:02 METAR KCLT 140552Z 00000KT 10SM FEW060 14/11 A3030 RMK AO2 SLP256 T01440106 10183 20144 58004 (SAC)","FM-15","7","","","","","","","","","","","","","","","","","","","","","","","","","","","","2009-06-02"
"72314013881","2020-05-14T01:00:00","FM-12","4","","SE","1.4","mi","TEMP, PRECIP, SNOW","","","PSY, SRG, SNOWBOARD","","","FAA CWO","","","","","","","","","","","","","","","","","","","","","","","","","","","","51","58","","","+0.01","8","78","30.29","57","29.52","9.94","54","000","","0","","","","","","","","","","","","","","","","","","","","","","","","","","","","","","","","","","","","","SYN08072314 32766 20000 10144 20106 39996 40256 58004 90552 333 10183 20111 555 91406=","FM-12","4","","","","","","","","","","","","","","","","","","","","","","","","","","","","2009-06-02"
"72314013881","2020-05-14T01:52:00","FM-15","7","","SE","1.4","mi","TEMP, PRECIP, SNOW","","","PSY, SRG, SNOWBOARD","","","FAA CWO","","","","","","","","","","","","","","","","","","","","","","","","","","","30.29","51","57","0.00","","","","81","30.27","FEW:02 60 FEW:02 170","29.46","10.00","54","000","","0","","","","","","","","","","","","","","","","","","","","","","","","","","","","","","","","","","","","","MET10605/14/20 01:52:02 METAR KCLT 140652Z 00000KT 10SM FEW060 FEW170 14/11 A3029 RMK AO2 SLP252 T01390106 (SAC)","FM-15","7","","","","","","","","","","","","","","","","","","","","","","","","","","","","2009-06-02"
"72314013881","2020-05-14T02:52:00","FM-15","7","","SE","1.4","mi","TEMP, PRECIP, SNOW","","","PSY, SRG, SNOWBOARD","","","FAA CWO","","","","","","","","","","","","","","","","","","","","","","","","","","","30.28","51","57","0.00","","","","81","30.27","BKN:07 70","29.45","10.00","54","150","","5","","","","","","","","","","","","","","","","","","","","","","","","","","","","","","","","","","","","","MET09905/14/20 02:52:02 METAR KCLT 140752Z 15004KT 10SM BKN070 14/11 A3028 RMK AO2 SLP250 T01390106 (SAC)","FM-15","7","","","","","","","","","","","","","","","","","","","","","","","","","","","","2009-06-02"
"72314013881","2020-05-14T03:52:00","FM-15","7","","SE","1.4","mi","TEMP, PRECIP, SNOW","","","PSY, SRG, SNOWBOARD","","","FAA CWO","","","","","","","","","","","","","","","","","","","","","","","","","","","30.29","52","57","0.00","","+0.01","5","83","30.27","OVC:08 65","29.46","10.00","54","000","","0","","","","","","","","","","","","","","","","","","","","","","","","","","","","","","","","","","","","","MET10505/14/20 03:52:02 METAR KCLT 140852Z 00000KT 10SM OVC065 14/11 A3029 RMK AO2 SLP251 T01390111 55005 (SAC)","FM-15","7","","","","","","","","","","","","","","","","","","","","","","","","","","","","2009-06-02"
"72314013881","2020-05-14T04:00:00","FM-12","4","","SE","1.4","mi","TEMP, PRECIP, SNOW","","","PSY, SRG, SNOWBOARD","","","FAA CWO","","","","","","","","","","","","","","","","","","","","","","","","","","","","52","57","","","+0.01","5","83","30.27","57","29.51","9.94","54","000","","0","","","","","","","","","","","","","","","","","","","","","","","","","","","","","","","","","","","","","SYN06472314 32766 80000 10139 20111 39993 40251 55005 90852 555 91409=","FM-12","4","","","","","","","","","","","","","","","","","","","","","","","","","","","","2009-06-02"
"72314013881","2020-05-14T04:52:00","FM-15","7","","SE","1.4","mi","TEMP, PRECIP, SNOW","","","PSY, SRG, SNOWBOARD","","","FAA CWO","","","","","","","","","","","","","","","","","","","","","","","","","","","30.30","52","58","0.00","","","","81","30.29","BKN:07 47 OVC:08 70","29.47","10.00","55","000","","0","","","","","","","","","","","","","","","","","","","","","","","","","","","","","","","","","","","","","MET10605/14/20 04:52:02 METAR KCLT 140952Z 00000KT 10SM BKN047 OVC070 14/11 A3030 RMK AO2 SLP256 T01440111 (SAC)","FM-15","7","","","","","","","","","","","","","","","","","","","","","","","","","","","","2009-06-02"
"72314013881","2020-05-14T05:52:00","FM-15","7","","SE","1.4","mi","TEMP, PRECIP, SNOW","","","PSY, SRG, SNOWBOARD","","","FAA CWO","","","","","","","","","","","","","","","","","","","","","","","","","","","30.32","52","56","0.00","","","","87","30.30","FEW:02 30 SCT:04 44 BKN:07 70","29.49","10.00","54","000","","0","","","","","","","","","","","","","","","","","","","","","","","","","","","","","","","","","","","","","MET11305/14/20 05:52:02 METAR KCLT 141052Z 00000KT 10SM FEW030 SCT044 BKN070 13/11 A3032 RMK AO2 SLP261 T01330111 (SAC)","FM-15","7","","","","","","","","","","","","","","","","","","","","","","","","","","","","2009-06-02"
"72314013881","2020-05-14T06:52:00","FM-15","7","","SE","1.4","mi","TEMP, PRECIP, SNOW","","","PSY, SRG, SNOWBOARD","","","FAA CWO","","","","","","","","","","","","","","","","","","","","","","","","","","","30.33","53","61","0.00","","-0.05","3","75","30.32","FEW:02 30 SCT:04 42 BKN:07 70","29.50","10.00","57","000","","0","","","","","","","","","","","","","","","","","","","","","","","","","","","","","","","","","","","","","MET13105/14/20 06:52:02 METAR KCLT 141152Z 00000KT 10SM FEW030 SCT042 BKN070 16/12 A3033 RMK AO2 SLP267 T01610117 10161 20111 53016 (SAC)","FM-15","7","","","","","","","","","","","","","","","","","","","","","","","","","","","","2009-06-02"
"72314013881","2020-05-14T07:00:00","FM-12","4","","SE","1.4","mi","TEMP, PRECIP, SNOW","","","PSY, SRG, SNOWBOARD","","","FAA CWO","","","","","","","","","","","","","","","","","","","","","","","","","","","","53","61","","","-0.05","3","75","30.32","26","29.55","9.94","57","000","","0","","","","","","","","","","","","","","","","","","","","","","","","","","","","","","","","","","","","","SYN08072314 32566 60000 10161 20117 30006 40267 53016 91152 333 10217 20111 555 91412=","FM-12","4","","","","","","","","","","","","","","","","","","","","","","","","","","","","2009-06-02"
"72314013881","2020-05-14T07:52:00","FM-15","7","","SE","1.4","mi","TEMP, PRECIP, SNOW","","","PSY, SRG, SNOWBOARD","","","FAA CWO","","","","","","","","","","","","","","","","","","","","","","","","","","","30.35","54","62","0.00","","","","75","30.34","BKN:07 43 BKN:07 50 OVC:08 160","29.52","10.00","57","220","","3","","","","","","","","","","","","","","","","","","","","","","","","","","","","","","","","","","","","","MET11305/14/20 07:52:02 METAR KCLT 141252Z 22003KT 10SM BKN043 BKN050 OVC160 17/12 A3035 RMK AO2 SLP275 T01670122 (DJS)","FM-15","7","","","","","","","","","","","","","","","","","","","","","","","","","","","","2009-06-02"
"72314013881","2020-05-14T08:47:00","FM-16","7","","SE","1.4","mi","TEMP, PRECIP, SNOW","","","PSY, SRG, SNOWBOARD","","","FAA CWO","","","","","","","","","","","","","","","","","","","","","","","","","","","30.36","54","63","","","","","73","","BKN:07 25 OVC:08 44","29.53","10.00","58","210","","5","","","","","","","","","","","","","","","","","","","","","","","","","","","","","","","","","","","","","MET08905/14/20 08:47:02 SPECI KCLT 141347Z 21004KT 10SM BKN025 OVC044 17/12 A3036 RMK AO2 (DJS)","FM-16","7","","","","","","","","","","","","","","","","","","","","","","","","","","","","2009-06-02"
"72314013881","2020-05-14T08:52:00","FM-15","7","","SE","1.4","mi","TEMP, PRECIP, SNOW","","","PSY, SRG, SNOWBOARD","","","FAA CWO","","","","","","","","","","","","","","","","","","","","","","","","","","","30.36","55","64","0.00","","","","73","30.35","BKN:07 25 BKN:07 44 OVC:08 140","29.53","10.00","59","210","","6","","","","","","","","","","","","","","","","","","","","","","","","","","","","","","","","","","","","","MET11305/14/20 08:52:02 METAR KCLT 141352Z 21005KT 10SM BKN025 BKN044 OVC140 18/13 A3036 RMK AO2 SLP276 T01780128 (DJS)","FM-15","7","","","","","","","","","","","","","","","","","","","","","","","","","","","","2009-06-02"
"72314013881","2020-05-14T09:18:00","FM-16","7","","SE","1.4","mi","TEMP, PRECIP, SNOW","","","PSY, SRG, SNOWBOARD","","","FAA CWO","","","","","","","","","","","","","","","","","","","","","","","","","","","30.35","56","67","","","","","68","","SCT:04 25 BKN:07 44 BKN:07 80","29.52","10.00","61","200","","8","","","","","","","","","","","","","","","","","","","","","","","","","","","","","","","","","","","","","MET10605/14/20 09:18:02 SPECI KCLT 141418Z 20007KT 10SM SCT025 BKN044 BKN080 19/13 A3035 RMK AO2 T01940133 (DJS)","FM-16","7","","","","","","","","","","","","","","","","","","","","","","","","","","","","2009-06-02"
"72314013881","2020-05-14T09:52:00","FM-15","7","","SE","1.4","mi","TEMP, PRECIP, SNOW","","","PSY, SRG, SNOWBOARD","","","FAA CWO","","","","","","","","","","","","","","","","","","","","","","","","","","","30.34","57","68","0.00","","+0.01","8","68","30.32","FEW:02 25 SCT:04 44 BKN:07 80","29.51","10.00","62","230","","10","","","","","","","","","","","","","","","","","","","","","","","","","","","","","","","","","","","","","MET11905/14/20 09:52:02 METAR KCLT 141452Z 23009KT 10SM FEW025 SCT044 BKN080 20/14 A3034 RMK AO2 SLP269 T02000139 58004 (DJS)","FM-15","7","","","","","","","","","","","","","","","","","","","","","","","","","","","","2009-06-02"
"72314013881","2020-05-14T10:00:00","FM-12","4","","SE","1.4","mi","TEMP, PRECIP, SNOW","","","PSY, SRG, SNOWBOARD","","","FAA CWO","","","","","","","","","","","","","","","","","","","","","","","","","","","","57","68","","","+0.01","8","68","30.32","26","29.56","9.94","62","230","","10","","","","","","","","","","","","","","","","","","","","","","","","","","","","","","","","","","","","","SYN06472314 32566 62309 10200 20139 30009 40269 58004 91452 555 91415=","FM-12","4","","","","","","","","","","","","","","","","","","","","","","","","","","","","2009-06-02"
"72314013881","2020-05-14T10:52:00","FM-15","7","","SE","1.4","mi","TEMP, PRECIP, SNOW","","","PSY, SRG, SNOWBOARD","","","FAA CWO","","","","","","","","","","","","","","","","","","","","","","","","","","","30.33","59","73","0.00","","","","62","30.31","SCT:04 24 BKN:07 45 BKN:07 180","29.50","10.00","64","200","17","10","","","","","","","","","","","","","","","","","","","","","","","","","","","","","","","","","","","","","MET11605/14/20 10:52:02 METAR KCLT 141552Z 20009G15KT 10SM SCT024 BKN045 BKN180 23/15 A3033 RMK AO2 SLP264 T02280150 (DJS)","FM-15","7","","","","","","","","","","","","","","","","","","","","","","","","","","","","2009-06-02"
"72314013881","2020-05-14T11:52:00","FM-15","7","","SE","1.4","mi","TEMP, PRECIP, SNOW","","","PSY, SRG, SNOWBOARD","","","FAA CWO","","","","","","","","","","","","","","","","","","","","","","","","","","","30.31","57","75","0.00","","","","54","30.29","SCT:04 27 BKN:07 45 BKN:07 180","29.48","10.00","64","210","","13","","","","","","","","","","","","","","","","","","","","","","","","","","","","","","","","","","","","","MET11305/14/20 11:52:02 METAR KCLT 141652Z 21011KT 10SM SCT027 BKN045 BKN180 24/14 A3031 RMK AO2 SLP258 T02390139 (DJS)","FM-15","7","","","","","","","","","","","","","","","","","","","","","","","","","","","","2009-06-02"
"72314013881","2020-05-14T12:52:00","FM-15","7","","SE","1.4","mi","TEMP, PRECIP, SNOW","","","PSY, SRG, SNOWBOARD","","","FAA CWO","","","","","","","","","","","","","","","","","","","","","","","","","","","30.28","58","77","0.00","","+0.06","8","52","30.26","SCT:04 37 BKN:07 180","29.45","10.00","65","210","20","13","","","","","","","","","","","","","","","","","","","","","","","","","","","","","","","","","","","","","MET12705/14/20 12:52:02 METAR KCLT 141752Z 21011G17KT 10SM SCT037 BKN180 25/14 A3028 RMK AO2 SLP248 T02500144 10250 20161 58020 (DJS)","FM-15","7","","","","","","","","","","","","","","","","","","","","","","","","","","","","2009-06-02"
"72314013881","2020-05-14T13:00:00","FM-12","4","","SE","1.4","mi","TEMP, PRECIP, SNOW","","","PSY, SRG, SNOWBOARD","","","FAA CWO","","","","","","","","","","","","","","","","","","","","","","","","","","","","58","77","","","+0.06","8","52","30.26","41","29.50","9.94","65","210","","13","","","","","","","","","","","","","","","","","","","","","","","","","","","","","","","","","","","","","SYN08672314 32666 62111 10250 20144 39989 40248 58020 91752 333 10250 20161 91017 555 91418=","FM-12","4","","","","","","","","","","","","","","","","","","","","","","","","","","","","2009-06-02"
"72314013881","2020-05-14T13:52:00","FM-15","7","","SE","1.4","mi","TEMP, PRECIP, SNOW","","","PSY, SRG, SNOWBOARD","","","FAA CWO","","","","","","","","","","","","","","","","","","","","","","","","","","","30.26","56","76","0.00","","","","50","30.24","BKN:07 42","29.43","10.00","64","210","","11","","","","","","","","","","","","","","","","","","","","","","","","","","","","","","","","","","","","","MET09905/14/20 13:52:02 METAR KCLT 141852Z 21010KT 10SM BKN042 24/13 A3026 RMK AO2 SLP241 T02440133 (DJS)","FM-15","7","","","","","","","","","","","","","","","","","","","","","","","","","","","","2009-06-02"
"72314013881","2020-05-14T14:52:00","FM-15","7","","SE","1.4","mi","TEMP, PRECIP, SNOW","","","PSY, SRG, SNOWBOARD","","","FAA CWO","","","","","","","","","","","","","","","","","","","","","","","","","","","30.23","57","78","0.00","","","","48","30.21","SCT:04 44 SCT:04 250","29.40","10.00","65","200","","11","","","","","","","","","","","","","","","","","","","","","","","","","","","","","","","","","","","","","MET10605/14/20 14:52:02 METAR KCLT 141952Z 20010KT 10SM SCT044 SCT250 26/14 A3023 RMK AO2 SLP230 T02560139 (DJS)","FM-15","7","","","","","","","","","","","","","","","","","","","","","","","","","","","","2009-06-02"
"72314013881","2020-05-14T15:52:00","FM-15","7","","SE","1.4","mi","TEMP, PRECIP, SNOW","","","PSY, SRG, SNOWBOARD","","","FAA CWO","","","","","","","","","","","","","","","","","","","","","","","","","","","30.21","57","80","0.00","","+0.07","6","45","30.19","SCT:04 50 SCT:04 250","29.38","10.00","66","250","","9","","","","","","","","","","","","","","","","","","","","","","","","","","","","","","","","","","","","","MET11205/14/20 15:52:02 METAR KCLT 142052Z 25008KT 10SM SCT050 SCT250 27/14 A3021 RMK AO2 SLP224 T02670139 56023 (HWC)","FM-15","7","","","","","","","","","","","","","","","","","","","","","","","","","","","","2009-06-02"
"72314013881","2020-05-14T16:00:00","FM-12","4","","SE","1.4","mi","TEMP, PRECIP, SNOW","","","PSY, SRG, SNOWBOARD","","","FAA CWO","","","","","","","","","","","","","","","","","","","","","","","","","","","","57","80","","","+0.07","6","45","30.19","57","29.43","9.94","66","250","","9","","","","","","","","","","","","","","","","","","","","","","","","","","","","","","","","","","","","","SYN06472314 32766 42508 10267 20139 39966 40224 56023 92052 555 91421=","FM-12","4","","","","","","","","","","","","","","","","","","","","","","","","","","","","2009-06-02"
"72314013881","2020-05-14T16:52:00","FM-15","7","","SE","1.4","mi","TEMP, PRECIP, SNOW","","","PSY, SRG, SNOWBOARD","","","FAA CWO","","","","","","","","","","","","","","","","","","","","","","","","","","","30.19","56","79","0.00","","","","45","30.17","FEW:02 50 SCT:04 250","29.36","10.00","65","230","","11","","","","","","","","","","","","","","","","","","","","","","","","","","","","","","","","","","","","","MET10605/14/20 16:52:02 METAR KCLT 142152Z 23010KT 10SM FEW050 SCT250 26/13 A3019 RMK AO2 SLP218 T02610133 (HWC)","FM-15","7","","","","","","","","","","","","","","","","","","","","","","","","","","","","2009-06-02"
"72314013881","2020-05-14T17:52:00","FM-15","7","","SE","1.4","mi","TEMP, PRECIP, SNOW","","","PSY, SRG, SNOWBOARD","","","FAA CWO","","","","","","","","","","","","","","","","","","","","","","","","","","","30.18","56","78","0.00","","","","47","30.16","FEW:02 50 FEW:02 250","29.35","10.00","65","220","","11","","","","","","","","","","","","","","","","","","","","","","","","","","","","","","","","","","","","","MET10605/14/20 17:52:02 METAR KCLT 142252Z 22010KT 10SM FEW050 FEW250 26/13 A3018 RMK AO2 SLP215 T02560133 (HWC)","FM-15","7","","","","","","","","","","","","","","","","","","","","","","","","","","","","2009-06-02"
"72314013881","2020-05-14T18:52:00","FM-15","7","","SE","1.4","mi","TEMP, PRECIP, SNOW","","","PSY, SRG, SNOWBOARD","","","FAA CWO","","","","","","","","","","","","","","","","","","","","","","","","","","","30.19","56","74","0.00","","+0.02","5","54","30.17","FEW:02 50 FEW:02 250","29.36","10.00","63","210","","6","","","","","","","","","","","","","","","","","","","","","","","","","","","","","","","","","","","","","MET12405/14/20 18:52:02 METAR KCLT 142352Z 21005KT 10SM FEW050 FEW250 23/13 A3019 RMK AO2 SLP216 T02330133 10267 20233 55007 (HWC)","FM-15","7","","","","","","","","","","","","","","","","","","","","","","","","","","","","2009-06-02"
"72314013881","2020-05-14T19:00:00","FM-12","4","","SE","1.4","mi","TEMP, PRECIP, SNOW","","","PSY, SRG, SNOWBOARD","","","FAA CWO","","","","","","","","","","","","","","","","","","","","","","","","","","","","56","74","","","+0.02","5","54","30.17","57","29.41","9.94","63","210","","6","","","","","","","","","","","","","","","","","","","","","","","","","","","","","","","","","","","","","SYN08072314 32766 22105 10233 20133 39960 40216 55007 92352 333 10267 20111 555 91500=","FM-12","4","","","","","","","","","","","","","","","","","","","","","","","","","","","","2009-06-02"
"72314013881","2020-05-14T19:52:00","FM-15","7","","SE","1.4","mi","TEMP, PRECIP, SNOW","","","PSY, SRG, SNOWBOARD","","","FAA CWO","","","","","","","","","","","","","","","","","","","","","","","","","","","30.19","56","71","0.00","","","","59","30.18","FEW:02 100 FEW:02 250","29.36","10.00","62","190","","7","","","","","","","","","","","","","","","","","","","","","","","","","","","","","","","","","","","","","MET10005/14/20 19:52:01 METAR KCLT 150052Z 19006KT 10SM FEW100 FEW250 22/13 A3019 RMK AO2 SLP219 T02170133","FM-15","7","","","","","","","","","","","","","","","","","","","","","","","","","","","","2009-06-02"
"72314013881","2020-05-14T20:52:00","FM-15","7","","SE","1.4","mi","TEMP, PRECIP, SNOW","","","PSY, SRG, SNOWBOARD","","","FAA CWO","","","","","","","","","","","","","","","","","","","","","","","","","","","30.21","55","69","0.00","","","","61","30.19","FEW:02 120","29.38","10.00","61","180","","6","","","","","","","","","","","","","","","","","","","","","","","","","","","","","","","","","","","","","MET09305/14/20 20:52:01 METAR KCLT 150152Z 18005KT 10SM FEW120 21/13 A3021 RMK AO2 SLP223 T02060128","FM-15","7","","","","","","","","","","","","","","","","","","","","","","","","","","","","2009-06-02"
"72314013881","2020-05-14T21:52:00","FM-15","7","","SE","1.4","mi","TEMP, PRECIP, SNOW","","","PSY, SRG, SNOWBOARD","","","FAA CWO","","","","","","","","","","","","","","","","","","","","","","","","","","","30.22","57","68","0.00","","-0.03","3","68","30.20","SCT:04 180","29.39","10.00","61","180","","10","","","","","","","","","","","","","","","","","","","","","","","","","","","","","","","","","","","","","MET09905/14/20 21:52:01 METAR KCLT 150252Z 18009KT 10SM SCT180 20/14 A3022 RMK AO2 SLP227 T02000139 53010","FM-15","7","","","","","","","","","","","","","","","","","","","","","","","","","","","","2009-06-02"
"72314013881","2020-05-14T22:00:00","FM-12","4","","SE","1.4","mi","TEMP, PRECIP, SNOW","","","PSY, SRG, SNOWBOARD","","","FAA CWO","","","","","","","","","","","","","","","","","","","","","","","","","","","","57","68","","","-0.03","3","68","30.20","","29.44","9.94","62","180","","10","","","","","","","","","","","","","","","","","","","","","","","","","","","","","","","","","","","","","SYN06472314 32966 41809 10200 20139 39970 40227 53010 90252 555 91503=","FM-12","4","","","","","","","","","","","","","","","","","","","","","","","","","","","","2009-06-02"
"72314013881","2020-05-14T22:52:00","FM-15","7","","SE","1.4","mi","TEMP, PRECIP, SNOW","","","PSY, SRG, SNOWBOARD","","","FAA CWO","","","","","","","","","","","","","","","","","","","","","","","","","","","30.22","56","70","0.00","","","","61","30.20","BKN:07 170 BKN:07 210","29.39","10.00","62","180","","10","","","","","","","","","","","","","","","","","","","","","","","","","","","","","","","","","","","","","MET10005/14/20 22:52:02 METAR KCLT 150352Z 18009KT 10SM BKN170 BKN210 21/13 A3022 RMK AO2 SLP227 T02110133","FM-15","7","","","","","","","","","","","","","","","","","","","","","","","","","","","","2009-06-02"
"72314013881","2020-05-14T23:52:00","FM-15","7","","SE","1.4","mi","TEMP, PRECIP, SNOW","","","PSY, SRG, SNOWBOARD","","","FAA CWO","","","","","","","","","","","","","","","","","","","","","","","","","","","30.22","56","69","0.00","","","","63","30.19","BKN:07 180 BKN:07 250","29.39","10.00","61","180","","10","","","","","","","","","","","","","","","","","","","","","","","","","","","","","","","","","","","","","MET11005/14/20 23:52:02 METAR KCLT 150452Z 18009KT 10SM BKN180 BKN250 21/13 A3022 RMK AO2 SLP225 T02060133 402670111","FM-15","7","","","","","","","","","","","","","","","","","","","","","","","","","","","","2009-06-02"
"72314013881","2020-05-14T23:59:00","SOD  ","6","","SE","1.4","mi","TEMP, PRECIP, SNOW","","","PSY, SRG, SNOWBOARD","","","FAA CWO","","","","55","66","64","30.25","29.44","60","6.9","1","-0.8","0","80","52","170","21","0.00","0","0.0","180","15","","","","","","","","","","","","","","","","","","","","","","","","","","","","","","","","","","","","","","","","","","","","","","","","","","","","","","","","","SOD73924 HR PRECIPITATION (IN): 0.00 SNOW DEPTH (IN):0     24 HR SNOWFALL (IN):0.0  24 HR MAX TEMP (F): 8024 HR MIN TEMP (F): 52AVERAGE STATION PRESSURE:29.440 MINIMUM SEA LEVEL PRESSURE:30.16 TIME OF OCCURRENCE:1834 PEAK WIND SPEED (MPH): 21 PEAK WIND DIR (DEG):170 PEAK WIND TIME (LST):      FASTEST 2MIN SPEED (MPH): 15FASTEST 2MIN DIR (DEG):180 FASTEST 2MIN TIME (LST):     AVERAGE WIND SPEED (MPH): 6.9 24 HR AVG TEMP (F): 66DEPART FROM NORMAL: -1  HEATING DEGREE DAYS:  0 COOLING DEGREE DAYS:  1 LATEST DAY MAX TEMP (0700-1900 LST):80  LATEST NIGHT MIN TEMP(1900-0800 LST):52 HOURLY INCREMENTAL PRECIPITATION VALUES (IN):.00 0.00 0.00 0.00 0.00 0.00 0.00 0.00 0.00 0.00 0.00 0.00 0.00 0.00 0.00 0.00 0.00 0.00 0.00 0.00 0.00 0.00 0.00 0.00","SOD  ","6","","","","","","","","","","","","","","","","","","","","","","","","","0520","1921","","2009-06-02"
"72314013881","2020-05-15T00:52:00","FM-15","7","","SE","1.4","mi","TEMP, PRECIP, SNOW","","","PSY, SRG, SNOWBOARD","","","FAA CWO","","","","","","","","","","","","","","","","","","","","","","","","","","","30.20","56","67","0.00","","+0.02","8","68","30.18","BKN:07 170 BKN:07 200 BKN:07 250","29.37","10.00","61","180","","10","","","","","","","","","","","","","","","","","","","","","","","","","","","","","","","","","","","","","MET13105/15/20 00:52:02 METAR KCLT 150552Z 18009KT 10SM BKN170 BKN200 BKN250 19/13 A3020 RMK AO2 SLP219 T01940133 10233 20194 58007 (SAC)","FM-15","7","","","","","","","","","","","","","","","","","","","","","","","","","","","","2009-06-02"
"72314013881","2020-05-15T01:00:00","FM-12","4","","SE","1.4","mi","TEMP, PRECIP, SNOW","","","PSY, SRG, SNOWBOARD","","","FAA CWO","","","","","","","","","","","","","","","","","","","","","","","","","","","","56","67","","","+0.02","8","68","30.18","","29.42","9.94","61","180","","10","","","","","","","","","","","","","","","","","","","","","","","","","","","","","","","","","","","","","SYN08072314 32966 61809 10194 20133 39963 40219 58007 90552 333 10233 20111 555 91506=","FM-12","4","","","","","","","","","","","","","","","","","","","","","","","","","","","","2009-06-02"
"72314013881","2020-05-15T01:52:00","FM-15","7","","SE","1.4","mi","TEMP, PRECIP, SNOW","","","PSY, SRG, SNOWBOARD","","","FAA CWO","","","","","","","","","","","","","","","","","","","","","","","","","","","30.19","56","64","0.00","","","","75","30.16","FEW:02 170 FEW:02 200 BKN:07 250","29.36","10.00","59","200","","6","","","","","","","","","","","","","","","","","","","","","","","","","","","","","","","","","","","","","MET11305/15/20 01:52:02 METAR KCLT 150652Z 20005KT 10SM FEW170 FEW200 BKN250 18/13 A3019 RMK AO2 SLP215 T01780133 (SAC)","FM-15","7","","","","","","","","","","","","","","","","","","","","","","","","","","","","2009-06-02"
"72314013881","2020-05-15T02:52:00","FM-15","7","","SE","1.4","mi","TEMP, PRECIP, SNOW","","","PSY, SRG, SNOWBOARD","","","FAA CWO","","","","","","","","","","","","","","","","","","","","","","","","","","","30.17","56","62","0.00","","","","80","30.15","BKN:07 250","29.34","10.00","59","200","","6","","","","","","","","","","","","","","","","","","","","","","","","","","","","","","","","","","","","","MET09905/15/20 02:52:02 METAR KCLT 150752Z 20005KT 10SM BKN250 17/13 A3017 RMK AO2 SLP209 T01670133 (SAC)","FM-15","7","","","","","","","","","","","","","","","","","","","","","","","","","","","","2009-06-02"
"72314013881","2020-05-15T03:52:00","FM-15","7","","SE","1.4","mi","TEMP, PRECIP, SNOW","","","PSY, SRG, SNOWBOARD","","","FAA CWO","","","","","","","","","","","","","","","","","","","","","","","","","","","30.17","55","60","0.00","","+0.03","6","84","30.15","BKN:07 250","29.34","10.00","57","180","","5","","","","","","","","","","","","","","","","","","","","","","","","","","","","","","","","","","","","","MET10505/15/20 03:52:02 METAR KCLT 150852Z 18004KT 10SM BKN250 16/13 A3017 RMK AO2 SLP209 T01560128 56010 (SAC)","FM-15","7","","","","","","","","","","","","","","","","","","","","","","","","","","","","2009-06-02"
"72314013881","2020-05-15T04:00:00","FM-12","4","","SE","1.4","mi","TEMP, PRECIP, SNOW","","","PSY, SRG, SNOWBOARD","","","FAA CWO","","","","","","","","","","","","","","","","","","","","","","","","","","","","55","60","","","+0.03","6","84","30.15","","29.39","9.94","57","180","","5","","","","","","","","","","","","","","","","","","","","","","","","","","","","","","","","","","","","","SYN06472314 32966 61804 10156 20128 39953 40209 56010 90852 555 91509=","FM-12","4","","","","","","","","","","","","","","","","","","","","","","","","","","","","2009-06-02"
"72314013881","2020-05-15T04:52:00","FM-15","7","","SE","1.4","mi","TEMP, PRECIP, SNOW","","","PSY, SRG, SNOWBOARD","","","FAA CWO","","","","","","","","","","","","","","","","","","","","","","","","","","","30.18","54","58","0.00","","","","87","30.16","BKN:07 250","29.35","10.00","56","000","","0","","","","","","","","","","","","","","","","","","","","","","","","","","","","","","","","","","","","","MET09905/15/20 04:52:02 METAR KCLT 150952Z 00000KT 10SM BKN250 14/12 A3018 RMK AO2 SLP214 T01440122 (SAC)","FM-15","7","","","","","","","","","","","","","","","","","","","","","","","","","","","","2009-06-02"
"72314013881","2020-05-15T05:52:00","FM-15","7","","SE","1.4","mi","TEMP, PRECIP, SNOW","","","PSY, SRG, SNOWBOARD","","","FAA CWO","","","","","","","","","","","","","","","","","","","","","","","","","","","30.21","55","59","0.00","","","","87","30.19","FEW:02 170 FEW:02 200 BKN:07 250","29.38","10.00","57","000","","0","","","","","","","","","","","","","","","","","","","","","","","","","","","","","","","","","","","","","MET11305/15/20 05:52:02 METAR KCLT 151052Z 00000KT 10SM FEW170 FEW200 BKN250 15/13 A3021 RMK AO2 SLP222 T01500128 (SAC)","FM-15","7","","","","","","","","","","","","","","","","","","","","","","","","","","","","2009-06-02"
"72314013881","2020-05-15T06:52:00","FM-15","7","","SE","1.4","mi","TEMP, PRECIP, SNOW","","","PSY, SRG, SNOWBOARD","","","FAA CWO","","","","","","","","","","","","","","","","","","","","","","","","","","","30.22","58","64","0.00","","-0.05","3","81","30.20","FEW:02 180 BKN:07 250","29.39","10.00","60","200","","5","","","","","","","","","","","","","","","","","","","","","","","","","","","","","","","","","","","","","MET12405/15/20 06:52:02 METAR KCLT 151152Z 20004KT 10SM FEW180 BKN250 18/14 A3022 RMK AO2 SLP228 T01780144 10194 20144 53018 (SAC)","FM-15","7","","","","","","","","","","","","","","","","","","","","","","","","","","","","2009-06-02"
"72314013881","2020-05-15T07:00:00","FM-12","4","","SE","1.4","mi","TEMP, PRECIP, SNOW","","","PSY, SRG, SNOWBOARD","","","FAA CWO","","","","","","","","","","","","","","","","","","","","","","","","","","","","58","64","","","-0.05","3","81","30.20","","29.44","9.94","60","200","","5","","","","","","","","","","","","","","","","","","","","","","","","","","","","","","","","","","","","","SYN08072314 32966 62004 10178 20144 39970 40228 53018 91152 333 10267 20144 555 91512=","FM-12","4","","","","","","","","","","","","","","","","","","","","","","","","","","","","2009-06-02"
"72314013881","2020-05-15T07:52:00","FM-15","7","","SE","1.4","mi","TEMP, PRECIP, SNOW","","","PSY, SRG, SNOWBOARD","","","FAA CWO","","","","","","","","","","","","","","","","","","","","","","","","","","","30.23","58","67","0.00","","","","73","30.22","FEW:02 20 FEW:02 180 BKN:07 250","29.40","10.00","62","240","","7","","","","","","","","","","","","","","","","","","","","","","","","","","","","","","","","","","","","","MET11305/15/20 07:52:02 METAR KCLT 151252Z 24006KT 10SM FEW020 FEW180 BKN250 19/14 A3023 RMK AO2 SLP232 T01940144 (DJS)","FM-15","7","","","","","","","","","","","","","","","","","","","","","","","","","","","","2009-06-02"
"72314013881","2020-05-15T08:52:00","FM-15","7","","SE","1.4","mi","TEMP, PRECIP, SNOW","","","PSY, SRG, SNOWBOARD","","","FAA CWO","","","","","","","","","","","","","","","","","","","","","","","","","","","30.23","59","70","0.00","","","","68","30.21","FEW:02 25 SCT:04 200 BKN:07 250","29.40","10.00","63","230","","7","","","","","","","","","","","","","","","","","","","","","","","","","","","","","","","","","","","","","MET11305/15/20 08:52:02 METAR KCLT 151352Z 23006KT 10SM FEW025 SCT200 BKN250 21/15 A3023 RMK AO2 SLP230 T02110150 (DJS)","FM-15","7","","","","","","","","","","","","","","","","","","","","","","","","","","","","2009-06-02"
"72314013881","2020-05-15T09:52:00","FM-15","7","","SE","1.4","mi","TEMP, PRECIP, SNOW","","","PSY, SRG, SNOWBOARD","","","FAA CWO","","","","","","","","","","","","","","","","","","","","","","","","","","","30.21","59","74","0.00","","+0.01","8","60","30.19","SCT:04 25 BKN:07 250","29.38","10.00","65","190","","7","","","","","","","","","","","","","","","","","","","","","","","","","","","","","","","","","","","","","MET11205/15/20 09:52:02 METAR KCLT 151452Z 19006KT 10SM SCT025 BKN250 23/15 A3021 RMK AO2 SLP224 T02330150 58003 (DJS)","FM-15","7","","","","","","","","","","","","","","","","","","","","","","","","","","","","2009-06-02"
"72314013881","2020-05-15T10:00:00","FM-12","4","","SE","1.4","mi","TEMP, PRECIP, SNOW","","","PSY, SRG, SNOWBOARD","","","FAA CWO","","","","","","","","","","","","","","","","","","","","","","","","","","","","59","74","","","+0.01","8","60","30.19","26","29.43","9.94","65","190","","7","","","","","","","","","","","","","","","","","","","","","","","","","","","","","","","","","","","","","SYN06472314 32566 61906 10233 20150 39966 40224 58003 91452 555 91515=","FM-12","4","","","","","","","","","","","","","","","","","","","","","","","","","","","","2009-06-02"
"72314013881","2020-05-15T10:52:00","FM-15","7","","SE","1.4","mi","TEMP, PRECIP, SNOW","","","PSY, SRG, SNOWBOARD","","","FAA CWO","","","","","","","","","","","","","","","","","","","","","","","","","","","30.20","59","76","0.00","","","","56","30.18","SCT:04 32 BKN:07 250","29.37","10.00","66","VRB","","9","","","","","","","","","","","","","","","","","","","","","","","","","","","","","","","","","","","","","MET10605/15/20 10:52:02 METAR KCLT 151552Z 23008KT 10SM SCT032 BKN250 24/15 A3020 RMK AO2 SLP219 T02440150 (DJS)","FM-15","7","","","","","","","","","","","","","","","","","","","","","","","","","","","","2009-06-02"
"72314013881","2020-05-15T11:52:00","FM-15","7","","SE","1.4","mi","TEMP, PRECIP, SNOW","","","PSY, SRG, SNOWBOARD","","","FAA CWO","","","","","","","","","","","","","","","","","","","","","","","","","","","30.18","58","76","0.00","","","","54","30.16","SCT:04 37 BKN:07 250","29.35","10.00","65","200","17","10","","","","","","","","","","","","","","","","","","","","","","","","","","","","","","","","","","","","","MET10905/15/20 11:52:02 METAR KCLT 151652Z 20009G15KT 10SM SCT037 BKN250 24/14 A3018 RMK AO2 SLP214 T02440144 (DJS)","FM-15","7","","","","","","","","","","","","","","","","","","","","","","","","","","","","2009-06-02"
"72314013881","2020-05-15T12:52:00","FM-15","7","","SE","1.4","mi","TEMP, PRECIP, SNOW","","","PSY, SRG, SNOWBOARD","","","FAA CWO","","","","","","","","","","","","","","","","","","","","","","","","","","","30.16","58","79","0.00","","+0.05","8","49","30.14","SCT:04 42 BKN:07 250","29.33","10.00","66","240","","10","","","","","","","","","","","","","","","","","","","","","","","","","","","","","","","","","","","","","MET12405/15/20 12:52:02 METAR KCLT 151752Z 24009KT 10SM SCT042 BKN250 26/14 A3016 RMK AO2 SLP207 T02610144 10261 20178 58016 (DJS)","FM-15","7","","","","","","","","","","","","","","","","","","","","","","","","","","","","2009-06-02"
"72314013881","2020-05-15T13:00:00","FM-12","4","","SE","1.4","mi","TEMP, PRECIP, SNOW","","","PSY, SRG, SNOWBOARD","","","FAA CWO","","","","","","","","","","","","","","","","","","","","","","","","","","","","58","79","","","+0.05","8","49","30.14","41","29.38","9.94","66","240","","10","","","","","","","","","","","","","","","","","","","","","","","","","","","","","","","","","","","","","SYN08072314 32666 62409 10261 20144 39950 40207 58016 91752 333 10261 20178 555 91518=","FM-12","4","","","","","","","","","","","","","","","","","","","","","","","","","","","","2009-06-02"
"72314013881","2020-05-15T13:52:00","FM-15","7","","SE","1.4","mi","TEMP, PRECIP, SNOW","","","PSY, SRG, SNOWBOARD","","","FAA CWO","","","","","","","","","","","","","","","","","","","","","","","","","","","30.13","58","80","0.00","","","","47","30.11","BKN:07 47 BKN:07 250","29.30","10.00","66","200","21","15","","","","","","","","","","","","","","","","","","","","","","","","","","","","","","","","","","","","","MET10905/15/20 13:52:02 METAR KCLT 151852Z 20013G18KT 10SM BKN047 BKN250 27/14 A3013 RMK AO2 SLP196 T02670144 (DJS)","FM-15","7","","","","","","","","","","","","","","","","","","","","","","","","","","","","2009-06-02"
"72314013881","2020-05-15T14:52:00","FM-15","7","","SE","1.4","mi","TEMP, PRECIP, SNOW","","","PSY, SRG, SNOWBOARD","","","FAA CWO","","","","","","","","","","","","","","","","","","","","","","","","","","","30.10","56","81","0.00","","","","42","30.08","BKN:07 50 BKN:07 250","29.28","10.00","66","220","21","13","","","","","","","","","","","","","","","","","","","","","","","","","","","","","","","","","","","","","MET10905/15/20 14:52:02 METAR KCLT 151952Z 22011G18KT 10SM BKN050 BKN250 27/13 A3010 RMK AO2 SLP186 T02720133 (DJS)","FM-15","7","","","","","","","","","","","","","","","","","","","","","","","","","","","","2009-06-02"
"72314013881","2020-05-15T15:52:00","FM-15","7","","SE","1.4","mi","TEMP, PRECIP, SNOW","","","PSY, SRG, SNOWBOARD","","","FAA CWO","","","","","","","","","","","","","","","","","","","","","","","","","","","30.09","57","81","0.00","","+0.08","6","44","30.06","BKN:07 50 BKN:07 250","29.26","10.00","66","VRB","","9","","","","","","","","","","","","","","","","","","","","","","","","","","","","","","","","","","","","","MET11105/15/20 15:52:02 METAR KCLT 152052Z 24008KT 10SM BKN050 BKN250 27/14 A3009 RMK AO2 SLP180 T02720139 56026 (MJ)","FM-15","7","","","","","","","","","","","","","","","","","","","","","","","","","","","","2009-06-02"
"72314013881","2020-05-15T16:00:00","FM-12","4","","SE","1.4","mi","TEMP, PRECIP, SNOW","","","PSY, SRG, SNOWBOARD","","","FAA CWO","","","","","","","","","","","","","","","","","","","","","","","","","","","","57","81","","","+0.08","6","44","30.06","57","29.31","9.94","66","240","","9","","","","","","","","","","","","","","","","","","","","","","","","","","","","","","","","","","","","","SYN06472314 32766 62408 10272 20139 39926 40180 56026 92052 555 91521=","FM-12","4","","","","","","","","","","","","","","","","","","","","","","","","","","","","2009-06-02"
"72314013881","2020-05-15T16:52:00","FM-15","7","","SE","1.4","mi","TEMP, PRECIP, SNOW","","","PSY, SRG, SNOWBOARD","","","FAA CWO","","","","","","","","","","","","","","","","","","","","","","","","","","","30.08","55","80","0.00","","","","42","30.06","SCT:04 55 SCT:04 250","29.26","10.00","65","220","","10","","","","","","","","","","","","","","","","","","","","","","","","","","","","","","","","","","","","","MET10505/15/20 16:52:02 METAR KCLT 152152Z 22009KT 10SM SCT055 SCT250 27/13 A3008 RMK AO2 SLP178 T02670128 (MJ)","FM-15","7","","","","","","","","","","","","","","","","","","","","","","","","","","","","2009-06-02"
"72314013881","2020-05-15T17:52:00","FM-15","7","","SE","1.4","mi","TEMP, PRECIP, SNOW","","","PSY, SRG, SNOWBOARD","","","FAA CWO","","","","","","","","","","","","","","","","","","","","","","","","","","","30.07","56","79","0.00","","","","45","30.05","FEW:02 50","29.25","10.00","65","190","","10","","","","","","","","","","","","","","","","","","","","","","","","","","","","","","","","","","","","","MET09805/15/20 17:52:02 METAR KCLT 152252Z 19009KT 10SM FEW050 26/13 A3007 RMK AO2 SLP175 T02610133 (MJ)","FM-15","7","","","","","","","","","","","","","","","","","","","","","","","","","","","","2009-06-02"
"72314013881","2020-05-15T18:52:00","FM-15","7","","SE","1.4","mi","TEMP, PRECIP, SNOW","","","PSY, SRG, SNOWBOARD","","","FAA CWO","","","","","","","","","","","","","","","","","","","","","","","","","","","30.07","56","76","0.00","","+0.02","6","50","30.05","FEW:02 50","29.25","10.00","64","210","","6","","","","","","","","","","","","","","","","","","","","","","","","","","","","","","","","","","","","","MET11605/15/20 18:52:02 METAR KCLT 152352Z 21005KT 10SM FEW050 24/13 A3007 RMK AO2 SLP175 T02440133 10278 20244 56006 (MJ)","FM-15","7","","","","","","","","","","","","","","","","","","","","","","","","","","","","2009-06-02"
"72314013881","2020-05-15T19:00:00","FM-12","4","","SE","1.4","mi","TEMP, PRECIP, SNOW","","","PSY, SRG, SNOWBOARD","","","FAA CWO","","","","","","","","","","","","","","","","","","","","","","","","","","","","56","76","","","+0.02","6","50","30.05","57","29.29","9.94","64","210","","6","","","","","","","","","","","","","","","","","","","","","","","","","","","","","","","","","","","","","SYN08072314 32766 22105 10244 20133 39920 40175 56006 92352 333 10278 20144 555 91600=","FM-12","4","","","","","","","","","","","","","","","","","","","","","","","","","","","","2009-06-02"
"72314013881","2020-05-15T19:52:00","FM-15","7","","SE","1.4","mi","TEMP, PRECIP, SNOW","","","PSY, SRG, SNOWBOARD","","","FAA CWO","","","","","","","","","","","","","","","","","","","","","","","","","","","30.08","57","71","0.00","","","","61","30.06","FEW:02 50","29.26","10.00","63","200","","6","","","","","","","","","","","","","","","","","","","","","","","","","","","","","","","","","","","","","MET09305/15/20 19:52:01 METAR KCLT 160052Z 20005KT 10SM FEW050 22/14 A3008 RMK AO2 SLP178 T02170139","FM-15","7","","","","","","","","","","","","","","","","","","","","","","","","","","","","2009-06-02"
"72314013881","2020-05-15T20:52:00","FM-15","7","","SE","1.4","mi","TEMP, PRECIP, SNOW","","","PSY, SRG, SNOWBOARD","","","FAA CWO","","","","","","","","","","","","","","","","","","","","","","","","","","","30.09","56","70","0.00","","","","61","30.07","FEW:02 50","29.26","10.00","62","190","","5","","","","","","","","","","","","","","","","","","","","","","","","","","","","","","","","","","","","","MET09305/15/20 20:52:01 METAR KCLT 160152Z 19004KT 10SM FEW050 21/13 A3009 RMK AO2 SLP183 T02110133","FM-15","7","","","","","","","","","","","","","","","","","","","","","","","","","","","","2009-06-02"
"72314013881","2020-05-15T21:52:00","FM-15","7","","SE","1.4","mi","TEMP, PRECIP, SNOW","","","PSY, SRG, SNOWBOARD","","","FAA CWO","","","","","","","","","","","","","","","","","","","","","","","","","","","30.09","57","68","0.00","","-0.02","1","68","30.07","FEW:02 250","29.26","10.00","61","180","","6","","","","","","","","","","","","","","","","","","","","","","","","","","","","","","","","","","","","","MET09905/15/20 21:52:01 METAR KCLT 160252Z 18005KT 10SM FEW250 20/14 A3009 RMK AO2 SLP183 T02000139 51008","FM-15","7","","","","","","","","","","","","","","","","","","","","","","","","","","","","2009-06-02"
"72314013881","2020-05-15T22:00:00","FM-12","4","","SE","1.4","mi","TEMP, PRECIP, SNOW","","","PSY, SRG, SNOWBOARD","","","FAA CWO","","","","","","","","","","","","","","","","","","","","","","","","","","","","57","68","","","-0.02","1","68","30.07","","29.31","9.94","61","180","","6","","","","","","","","","","","","","","","","","","","","","","","","","","","","","","","","","","","","","SYN06472314 32966 21805 10200 20139 39926 40183 51008 90252 555 91603=","FM-12","4","","","","","","","","","","","","","","","","","","","","","","","","","","","","2009-06-02"
"72314013881","2020-05-15T22:52:00","FM-15","7","","SE","1.4","mi","TEMP, PRECIP, SNOW","","","PSY, SRG, SNOWBOARD","","","FAA CWO","","","","","","","","","","","","","","","","","","","","","","","","","","","30.09","57","67","0.00","","","","71","30.07","FEW:02 250","29.26","10.00","61","000","","0","","","","","","","","","","","","","","","","","","","","","","","","","","","","","","","","","","","","","MET09305/15/20 22:52:02 METAR KCLT 160352Z 00000KT 10SM FEW250 19/14 A3009 RMK AO2 SLP183 T01940139","FM-15","7","","","","","","","","","","","","","","","","","","","","","","","","","","","","2009-06-02"
"72314013881","2020-05-15T23:52:00","FM-15","7","","SE","1.4","mi","TEMP, PRECIP, SNOW","","","PSY, SRG, SNOWBOARD","","","FAA CWO","","","","","","","","","","","","","","","","","","","","","","","","","","","30.09","57","65","0.00","","","","76","30.06","FEW:02 250","29.26","10.00","60","160","","7","","","","","","","","","","","","","","","","","","","","","","","","","","","","","","","","","","","","","MET10305/15/20 23:52:02 METAR KCLT 160452Z 16006KT 10SM FEW250 18/14 A3009 RMK AO2 SLP181 T01830139 402780144","FM-15","7","","","","","","","","","","","","","","","","","","","","","","","","","","","","2009-06-02"
"72314013881","2020-05-15T23:59:00","SOD  ","6","","SE","1.4","mi","TEMP, PRECIP, SNOW","","","PSY, SRG, SNOWBOARD","","","FAA CWO","","","","57","70","64","30.13","29.33","62","7.0","5","3.0","0","82","58","230","21","0.00","0","0.0","230","17","","","","","","","","","","","","","","","","","","","","","","","","","","","","","","","","","","","","","","","","","","","","","","","","","","","","","","","","","SOD73924 HR PRECIPITATION (IN): 0.00 SNOW DEPTH (IN):0     24 HR SNOWFALL (IN):0.0  24 HR MAX TEMP (F): 8224 HR MIN TEMP (F): 58AVERAGE STATION PRESSURE:29.330 MINIMUM SEA LEVEL PRESSURE:30.04 TIME OF OCCURRENCE:1826 PEAK WIND SPEED (MPH): 21 PEAK WIND DIR (DEG):230 PEAK WIND TIME (LST):      FASTEST 2MIN SPEED (MPH): 17FASTEST 2MIN DIR (DEG):230 FASTEST 2MIN TIME (LST):     AVERAGE WIND SPEED (MPH): 7.0 24 HR AVG TEMP (F): 70DEPART FROM NORMAL:  3  HEATING DEGREE DAYS:  0 COOLING DEGREE DAYS:  5 LATEST DAY MAX TEMP (0700-1900 LST):82  LATEST NIGHT MIN TEMP(1900-0800 LST):58 HOURLY INCREMENTAL PRECIPITATION VALUES (IN):.00 0.00 0.00 0.00 0.00 0.00 0.00 0.00 0.00 0.00 0.00 0.00 0.00 0.00 0.00 0.00 0.00 0.00 0.00 0.00 0.00 0.00 0.00 0.00","SOD  ","6","","","","","","","","","","","","","","","","","","","","","","","","","0519","1922","","2009-06-02"
"72314013881","2020-05-16T00:52:00","FM-15","7","","SE","1.4","mi","TEMP, PRECIP, SNOW","","","PSY, SRG, SNOWBOARD","","","FAA CWO","","","","","","","","","","","","","","","","","","","","","","","","","","","30.09","57","64","0.00","","+0.00","5","78","30.07","FEW:02 250","29.26","10.00","60","180","","6","","","","","","","","","","","","","","","","","","","","","","","","","","","","","","","","","","","","","MET11705/16/20 00:52:02 METAR KCLT 160552Z 18005KT 10SM FEW250 18/14 A3009 RMK AO2 SLP182 T01780139 10244 20172 55001 (RJH)","FM-15","7","","","","","","","","","","","","","","","","","","","","","","","","","","","","2009-06-02"
"72314013881","2020-05-16T01:00:00","FM-12","4","","SE","1.4","mi","TEMP, PRECIP, SNOW","","","PSY, SRG, SNOWBOARD","","","FAA CWO","","","","","","","","","","","","","","","","","","","","","","","","","","","","57","64","","","+0.00","5","78","30.07","","29.31","9.94","60","180","","6","","","","","","","","","","","","","","","","","","","","","","","","","","","","","","","","","","","","","SYN08072314 32966 21805 10178 20139 39926 40182 55001 90552 333 10244 20144 555 91606=","FM-12","4","","","","","","","","","","","","","","","","","","","","","","","","","","","","2009-06-02"
"72314013881","2020-05-16T01:52:00","FM-15","7","","SE","1.4","mi","TEMP, PRECIP, SNOW","","","PSY, SRG, SNOWBOARD","","","FAA CWO","","","","","","","","","","","","","","","","","","","","","","","","","","","30.07","57","62","0.00","","","","84","30.05","FEW:02 250","29.25","10.00","59","000","","0","","","","","","","","","","","","","","","","","","","","","","","","","","","","","","","","","","","","","MET09905/16/20 01:52:02 METAR KCLT 160652Z 00000KT 10SM FEW250 17/14 A3007 RMK AO2 SLP175 T01670139 (RJH)","FM-15","7","","","","","","","","","","","","","","","","","","","","","","","","","","","","2009-06-02"
"72314013881","2020-05-16T02:52:00","FM-15","7","","SE","1.4","mi","TEMP, PRECIP, SNOW","","","PSY, SRG, SNOWBOARD","","","FAA CWO","","","","","","","","","","","","","","","","","","","","","","","","","","","30.06","57","63","0.00","","","","81","30.03","CLR:00","29.23","10.00","60","160","","5","","","","","","","","","","","","","","","","","","","","","","","","","","","","","","","","","","","","","MET09605/16/20 02:52:02 METAR KCLT 160752Z 16004KT 10SM CLR 17/14 A3006 RMK AO2 SLP171 T01720139 (RJH)","FM-15","7","","","","","","","","","","","","","","","","","","","","","","","","","","","","2009-06-02"
"72314013881","2020-05-16T03:52:00","FM-15","7","","SE","1.4","mi","TEMP, PRECIP, SNOW","","","PSY, SRG, SNOWBOARD","","","FAA CWO","","","","","","","","","","","","","","","","","","","","","","","","","","","30.06","57","62","0.00","","+0.03","5","84","30.04","CLR:00","29.23","10.00","59","170","","5","","","","","","","","","","","","","","","","","","","","","","","","","","","","","","","","","","","","","MET10205/16/20 03:52:02 METAR KCLT 160852Z 17004KT 10SM CLR 17/14 A3006 RMK AO2 SLP173 T01670139 55009 (RJH)","FM-15","7","","","","","","","","","","","","","","","","","","","","","","","","","","","","2009-06-02"
"72314013881","2020-05-16T04:00:00","FM-12","4","","SE","1.4","mi","TEMP, PRECIP, SNOW","","","PSY, SRG, SNOWBOARD","","","FAA CWO","","","","","","","","","","","","","","","","","","","","","","","","","","","","57","62","","","+0.03","5","84","30.04","","29.28","9.94","59","170","","5","","","","","","","","","","","","","","","","","","","","","","","","","","","","","","","","","","","","","SYN06472314 32966 01704 10167 20139 39917 40173 55009 90852 555 91609=","FM-12","4","","","","","","","","","","","","","","","","","","","","","","","","","","","","2009-06-02"
"72314013881","2020-05-16T04:52:00","FM-15","7","","SE","1.4","mi","TEMP, PRECIP, SNOW","","","PSY, SRG, SNOWBOARD","","","FAA CWO","","","","","","","","","","","","","","","","","","","","","","","","","","","30.08","57","61","0.00","","","","87","30.05","FEW:02 50","29.26","10.00","59","170","","3","","","","","","","","","","","","","","","","","","","","","","","","","","","","","","","","","","","","","MET09905/16/20 04:52:02 METAR KCLT 160952Z 17003KT 10SM FEW050 16/14 A3008 RMK AO2 SLP177 T01610139 (RJH)","FM-15","7","","","","","","","","","","","","","","","","","","","","","","","","","","","","2009-06-02"
"72314013881","2020-05-16T05:52:00","FM-15","7","","SE","1.4","mi","TEMP, PRECIP, SNOW","","","PSY, SRG, SNOWBOARD","","","FAA CWO","","","","","","","","","","","","","","","","","","","","","","","","","","","30.10","57","60","0.00","","","","90","30.08","FEW:02 50 FEW:02 250","29.28","9.00","58","160","","3","","","","","","","","","","","","","","","","","","","","","","","","","","","","","","","","","","","","","MET10505/16/20 05:52:02 METAR KCLT 161052Z 16003KT 9SM FEW050 FEW250 16/14 A3010 RMK AO2 SLP186 T01560139 (RJH)","FM-15","7","","","","","","","","","","","","","","","","","","","","","","","","","","","","2009-06-02"
"72314013881","2020-05-16T06:52:00","FM-15","7","","SE","1.4","mi","TEMP, PRECIP, SNOW","","","PSY, SRG, SNOWBOARD","","","FAA CWO","","","","","","","","","","","","","","","","","","","","","","","","","","","30.11","60","66","0.00","","-0.04","1","81","30.08","FEW:02 250","29.28","10.00","62","200","","3","","","","","","","","","","","","","","","","","","","","","","","","","","","","","","","","","","","","","MET11705/16/20 06:52:02 METAR KCLT 161152Z 20003KT 10SM FEW250 19/16 A3011 RMK AO2 SLP187 T01890156 10189 20156 51014 (RJH)","FM-15","7","","","","","","","","","","","","","","","","","","","","","","","","","","","","2009-06-02"
"72314013881","2020-05-16T07:00:00","FM-12","4","","SE","1.4","mi","TEMP, PRECIP, SNOW","","","PSY, SRG, SNOWBOARD","","","FAA CWO","","","","","","","","","","","","","","","","","","","","","","","","","","","","60","66","","","-0.04","1","81","30.08","","29.33","9.94","62","200","","3","","","","","","","","","","","","","","","","","","","","","","","","","","","","","","","","","","","","","SYN08072314 32966 22003 10189 20156 39933 40187 51014 91152 333 10278 20156 555 91612=","FM-12","4","","","","","","","","","","","","","","","","","","","","","","","","","","","","2009-06-02"
"72314013881","2020-05-16T07:52:00","FM-15","7","","SE","1.4","mi","TEMP, PRECIP, SNOW","","","PSY, SRG, SNOWBOARD","","","FAA CWO","","","","","","","","","","","","","","","","","","","","","","","","","","","30.11","61","70","0.00","","","","73","30.09","FEW:02 250","29.28","10.00","64","240","","7","","","","","","","","","","","","","","","","","","","","","","","","","","","","","","","","","","","","","MET09805/16/20 07:52:02 METAR KCLT 161252Z 24006KT 10SM FEW250 21/16 A3011 RMK AO2 SLP189 T02110161 (DM)","FM-15","7","","","","","","","","","","","","","","","","","","","","","","","","","","","","2009-06-02"
"72314013881","2020-05-16T08:52:00","FM-15","7","","SE","1.4","mi","TEMP, PRECIP, SNOW","","","PSY, SRG, SNOWBOARD","","","FAA CWO","","","","","","","","","","","","","","","","","","","","","","","","","","","30.11","61","73","0.00","","","","66","30.09","SCT:04 250","29.28","10.00","66","220","","8","","","","","","","","","","","","","","","","","","","","","","","","","","","","","","","","","","","","","MET09805/16/20 08:52:02 METAR KCLT 161352Z 22007KT 10SM SCT250 23/16 A3011 RMK AO2 SLP189 T02280161 (DM)","FM-15","7","","","","","","","","","","","","","","","","","","","","","","","","","","","","2009-06-02"
"72314013881","2020-05-16T09:52:00","FM-15","7","","SE","1.4","mi","TEMP, PRECIP, SNOW","","","PSY, SRG, SNOWBOARD","","","FAA CWO","","","","","","","","","","","","","","","","","","","","","","","","","","","30.11","61","76","0.00","","-0.00","0","60","30.09","FEW:02 30 SCT:04 250","29.28","10.00","67","220","","6","","","","","","","","","","","","","","","","","","","","","","","","","","","","","","","","","","","","","MET11105/16/20 09:52:02 METAR KCLT 161452Z 22005KT 10SM FEW030 SCT250 24/16 A3011 RMK AO2 SLP188 T02440161 50000 (DM)","FM-15","7","","","","","","","","","","","","","","","","","","","","","","","","","","","","2009-06-02"
"72314013881","2020-05-16T10:00:00","FM-12","4","","SE","1.4","mi","TEMP, PRECIP, SNOW","","","PSY, SRG, SNOWBOARD","","","FAA CWO","","","","","","","","","","","","","","","","","","","","","","","","","","","","61","76","","","0.00","9","60","30.09","26","29.33","9.94","67","220","","6","","","","","","","","","","","","","","","","","","","","","","","","","","","","","","","","","","","","","SYN06472314 32566 42205 10244 20161 39933 40188 50000 91452 555 91615=","FM-12","4","","","","","","","","","","","","","","","","","","","","","","","","","","","","2009-06-02"
"72314013881","2020-05-16T10:52:00","FM-15","7","","SE","1.4","mi","TEMP, PRECIP, SNOW","","","PSY, SRG, SNOWBOARD","","","FAA CWO","","","","","","","","","","","","","","","","","","","","","","","","","","","30.10","61","78","0.00","","","","56","30.08","SCT:04 35 BKN:07 250","29.28","10.00","67","190","","6","","","","","","","","","","","","","","","","","","","","","","","","","","","","","","","","","","","","","MET10505/16/20 10:52:02 METAR KCLT 161552Z 19005KT 10SM SCT035 BKN250 26/16 A3010 RMK AO2 SLP185 T02560161 (DM)","FM-15","7","","","","","","","","","","","","","","","","","","","","","","","","","","","","2009-06-02"
"72314013881","2020-05-16T11:52:00","FM-15","7","","SE","1.4","mi","TEMP, PRECIP, SNOW","","","PSY, SRG, SNOWBOARD","","","FAA CWO","","","","","","","","","","","","","","","","","","","","","","","","","","","30.08","59","81","0.00","","","","47","30.06","SCT:04 40 SCT:04 250","29.26","10.00","67","VRB","","5","","","","","","","","","","","","","","","","","","","","","","","","","","","","","","","","","","","","","MET10505/16/20 11:52:02 METAR KCLT 161652Z VRB04KT 10SM SCT040 SCT250 27/15 A3008 RMK AO2 SLP180 T02720150 (DM)","FM-15","7","","","","","","","","","","","","","","","","","","","","","","","","","","","","2009-06-02"
"72314013881","2020-05-16T12:52:00","FM-15","7","","SE","1.4","mi","TEMP, PRECIP, SNOW","","","PSY, SRG, SNOWBOARD","","","FAA CWO","","","","","","","","","","","","","","","","","","","","","","","","","","","30.06","60","82","0.00","","+0.04","8","47","30.04","SCT:04 47 SCT:04 250","29.23","10.00","68","VRB","","5","","","","","","","","","","","","","","","","","","","","","","","","","","","","","","","","","","","","","MET12305/16/20 12:52:02 METAR KCLT 161752Z VRB04KT 10SM SCT047 SCT250 28/16 A3006 RMK AO2 SLP173 T02780156 10289 20189 58014 (DM)","FM-15","7","","","","","","","","","","","","","","","","","","","","","","","","","","","","2009-06-02"
"72314013881","2020-05-16T13:00:00","FM-12","4","","SE","1.4","mi","TEMP, PRECIP, SNOW","","","PSY, SRG, SNOWBOARD","","","FAA CWO","","","","","","","","","","","","","","","","","","","","","","","","","","","","60","82","","","+0.04","8","47","30.04","41","29.28","9.94","68","","","5","","","","","","","","","","","","","","","","","","","","","","","","","","","","","","","","","","","","","SYN08072314 32666 4//04 10278 20156 39917 40173 58014 91752 333 10289 20189 555 91618=","FM-12","4","","","","","","","","","","","","","","","","","","","","","","","","","","","","2009-06-02"
"72314013881","2020-05-16T13:52:00","FM-15","7","","SE","1.4","mi","TEMP, PRECIP, SNOW","","","PSY, SRG, SNOWBOARD","","","FAA CWO","","","","","","","","","","","","","","","","","","","","","","","","","","","30.05","58","83","0.00","","","","43","30.02","BKN:07 50 BKN:07 250","29.23","10.00","67","VRB","","3","","","","","","","","","","","","","","","","","","","","","","","","","","","","","","","","","","","","","MET10505/16/20 13:52:02 METAR KCLT 161852Z VRB03KT 10SM BKN050 BKN250 28/14 A3005 RMK AO2 SLP167 T02830144 (DM)","FM-15","7","","","","","","","","","","","","","","","","","","","","","","","","","","","","2009-06-02"
"72314013881","2020-05-16T14:52:00","FM-15","7","","SE","1.4","mi","TEMP, PRECIP, SNOW","","","PSY, SRG, SNOWBOARD","","","FAA CWO","","","","","","","","","","","","","","","","","","","","","","","","","","","30.02","57","85","0.00","","","","39","30.00","BKN:07 60 BKN:07 250","29.20","10.00","67","070","","7","","","","","","","","","","","","","","","","","","","","","","","","","","","","","","","","","","","","","MET10505/16/20 14:52:02 METAR KCLT 161952Z 07006KT 10SM BKN060 BKN250 29/14 A3002 RMK AO2 SLP159 T02940139 (DM)","FM-15","7","","","","","","","","","","","","","","","","","","","","","","","","","","","","2009-06-02"
"72314013881","2020-05-16T15:52:00","FM-15","7","","SE","1.4","mi","TEMP, PRECIP, SNOW","","","PSY, SRG, SNOWBOARD","","","FAA CWO","","","","","","","","","","","","","","","","","","","","","","","","","","","30.01","54","84","0.00","","+0.05","6","36","29.99","SCT:04 60 SCT:04 250","29.19","10.00","66","VRB","","7","","","","","","","","","","","","","","","","","","","","","","","","","","","","","","","","","","","","","MET11105/16/20 15:52:02 METAR KCLT 162052Z VRB06KT 10SM SCT060 SCT250 29/12 A3001 RMK AO2 SLP155 T02890122 56018 (MJ)","FM-15","7","","","","","","","","","","","","","","","","","","","","","","","","","","","","2009-06-02"
"72314013881","2020-05-16T16:00:00","FM-12","4","","SE","1.4","mi","TEMP, PRECIP, SNOW","","","PSY, SRG, SNOWBOARD","","","FAA CWO","","","","","","","","","","","","","","","","","","","","","","","","","","","","54","84","","","+0.05","6","36","29.99","57","29.23","9.94","66","","","7","","","","","","","","","","","","","","","","","","","","","","","","","","","","","","","","","","","","","SYN06472314 32766 4//06 10289 20122 39900 40155 56018 92052 555 91621=","FM-12","4","","","","","","","","","","","","","","","","","","","","","","","","","","","","2009-06-02"
"72314013881","2020-05-16T16:52:00","FM-15","7","","SE","1.4","mi","TEMP, PRECIP, SNOW","","","PSY, SRG, SNOWBOARD","","","FAA CWO","","","","","","","","","","","","","","","","","","","","","","","","","","","30.01","55","85","0.00","","","","36","29.99","SCT:04 65","29.19","10.00","66","190","","8","","","","","","","","","","","","","","","","","","","","","","","","","","","","","","","","","","","","","MET09805/16/20 16:52:02 METAR KCLT 162152Z 19007KT 10SM SCT065 29/13 A3001 RMK AO2 SLP155 T02940128 (MJ)","FM-15","7","","","","","","","","","","","","","","","","","","","","","","","","","","","","2009-06-02"
"72314013881","2020-05-16T17:52:00","FM-15","7","","SE","1.4","mi","TEMP, PRECIP, SNOW","","","PSY, SRG, SNOWBOARD","","","FAA CWO","","","","","","","","","","","","","","","","","","","","","","","","","","","30.00","55","83","0.00","","","","38","29.98","SCT:04 65 BKN:07 250","29.18","10.00","66","170","","8","","","","","","","","","","","","","","","","","","","","","","","","","","","","","","","","","","","","","MET10505/16/20 17:52:02 METAR KCLT 162252Z 17007KT 10SM SCT065 BKN250 28/13 A3000 RMK AO2 SLP152 T02830128 (MJ)","FM-15","7","","","","","","","","","","","","","","","","","","","","","","","","","","","","2009-06-02"
"72314013881","2020-05-16T18:52:00","FM-15","7","","SE","1.4","mi","TEMP, PRECIP, SNOW","","","PSY, SRG, SNOWBOARD","","","FAA CWO","","","","","","","","","","","","","","","","","","","","","","","","","","","30.01","57","80","0.00","","+0.00","5","45","29.99","FEW:02 65 BKN:07 250","29.19","10.00","66","170","","8","","","","","","","","","","","","","","","","","","","","","","","","","","","","","","","","","","","","","MET12305/16/20 18:52:02 METAR KCLT 162352Z 17007KT 10SM FEW065 BKN250 27/14 A3001 RMK AO2 SLP155 T02670139 10300 20267 55000 (MJ)","FM-15","7","","","","","","","","","","","","","","","","","","","","","","","","","","","","2009-06-02"
"72314013881","2020-05-16T19:00:00","FM-12","4","","SE","1.4","mi","TEMP, PRECIP, SNOW","","","PSY, SRG, SNOWBOARD","","","FAA CWO","","","","","","","","","","","","","","","","","","","","","","","","","","","","57","80","","","+0.00","5","45","29.99","57","29.23","9.94","66","170","","8","","","","","","","","","","","","","","","","","","","","","","","","","","","","","","","","","","","","","SYN08072314 32766 61707 10267 20139 39900 40155 55000 92352 333 10300 20156 555 91700=","FM-12","4","","","","","","","","","","","","","","","","","","","","","","","","","","","","2009-06-02"
"72314013881","2020-05-16T19:52:00","FM-15","7","","SE","1.4","mi","TEMP, PRECIP, SNOW","","","PSY, SRG, SNOWBOARD","","","FAA CWO","","","","","","","","","","","","","","","","","","","","","","","","","","","30.03","57","78","0.00","","","","48","30.01","BKN:07 250","29.21","10.00","65","150","","7","","","","","","","","","","","","","","","","","","","","","","","","","","","","","","","","","","","","","MET09305/16/20 19:52:01 METAR KCLT 170052Z 15006KT 10SM BKN250 26/14 A3003 RMK AO2 SLP161 T02560139","FM-15","7","","","","","","","","","","","","","","","","","","","","","","","","","","","","2009-06-02"
"72314013881","2020-05-16T20:52:00","FM-15","7","","SE","1.4","mi","TEMP, PRECIP, SNOW","","","PSY, SRG, SNOWBOARD","","","FAA CWO","","","","","","","","","","","","","","","","","","","","","","","","","","","30.05","58","75","0.00","","","","55","30.02","BKN:07 250","29.23","10.00","65","000","","0","","","","","","","","","","","","","","","","","","","","","","","","","","","","","","","","","","","","","MET09305/16/20 20:52:01 METAR KCLT 170152Z 00000KT 10SM BKN250 24/14 A3005 RMK AO2 SLP166 T02390144","FM-15","7","","","","","","","","","","","","","","","","","","","","","","","","","","","","2009-06-02"
"72314013881","2020-05-16T21:52:00","FM-15","7","","SE","1.4","mi","TEMP, PRECIP, SNOW","","","PSY, SRG, SNOWBOARD","","","FAA CWO","","","","","","","","","","","","","","","","","","","","","","","","","","","30.05","59","73","0.00","","-0.04","1","62","30.02","BKN:07 250","29.23","10.00","64","150","","3","","","","","","","","","","","","","","","","","","","","","","","","","","","","","","","","","","","","","MET09905/16/20 21:52:01 METAR KCLT 170252Z 15003KT 10SM BKN250 23/15 A3005 RMK AO2 SLP167 T02280150 51013","FM-15","7","","","","","","","","","","","","","","","","","","","","","","","","","","","","2009-06-02"
"72314013881","2020-05-16T22:00:00","FM-12","4","","SE","1.4","mi","TEMP, PRECIP, SNOW","","","PSY, SRG, SNOWBOARD","","","FAA CWO","","","","","","","","","","","","","","","","","","","","","","","","","","","","59","73","","","-0.04","1","62","30.02","","29.27","9.94","64","150","","3","","","","","","","","","","","","","","","","","","","","","","","","","","","","","","","","","","","","","SYN06472314 32966 61503 10228 20150 39913 40167 51013 90252 555 91703=","FM-12","4","","","","","","","","","","","","","","","","","","","","","","","","","","","","2009-06-02"
"72314013881","2020-05-16T22:52:00","FM-15","7","","SE","1.4","mi","TEMP, PRECIP, SNOW","","","PSY, SRG, SNOWBOARD","","","FAA CWO","","","","","","","","","","","","","","","","","","","","","","","","","","","30.05","58","70","0.00","","","","66","30.02","BKN:07 250","29.23","10.00","63","150","","5","","","","","","","","","","","","","","","","","","","","","","","","","","","","","","","","","","","","","MET09305/16/20 22:52:02 METAR KCLT 170352Z 15004KT 10SM BKN250 21/14 A3005 RMK AO2 SLP166 T02110144","FM-15","7","","","","","","","","","","","","","","","","","","","","","","","","","","","","2009-06-02"
"72314013881","2020-05-16T23:52:00","FM-15","7","","SE","1.4","mi","TEMP, PRECIP, SNOW","","","PSY, SRG, SNOWBOARD","","","FAA CWO","","","","","","","","","","","","","","","","","","","","","","","","","","","30.06","59","70","0.00","","","","68","30.03","BKN:07 250","29.23","10.00","63","170","","7","","","","","","","","","","","","","","","","","","","","","","","","","","","","","","","","","","","","","MET10305/16/20 23:52:02 METAR KCLT 170452Z 17006KT 10SM BKN250 21/15 A3006 RMK AO2 SLP171 T02110150 403000156","FM-15","7","","","","","","","","","","","","","","","","","","","","","","","","","","","","2009-06-02"
"72314013881","2020-05-16T23:59:00","SOD  ","6","","SE","1.4","mi","TEMP, PRECIP, SNOW","","","PSY, SRG, SNOWBOARD","","","FAA CWO","","","","58","73","61","30.04","29.24","64","5.2","8","5.7","0","86","60","160","16","0.00","0","0.0","160","12","","","","","","","","","","","","","","","","","","","","","","","","","","","","","","","","","","","","","","","","","","","","","","","","","","","","","","","","","SOD73924 HR PRECIPITATION (IN): 0.00 SNOW DEPTH (IN):0     24 HR SNOWFALL (IN):0.0  24 HR MAX TEMP (F): 8624 HR MIN TEMP (F): 60AVERAGE STATION PRESSURE:29.240 MINIMUM SEA LEVEL PRESSURE:29.98 TIME OF OCCURRENCE:1848 PEAK WIND SPEED (MPH): 16 PEAK WIND DIR (DEG):160 PEAK WIND TIME (LST):      FASTEST 2MIN SPEED (MPH): 12FASTEST 2MIN DIR (DEG):160 FASTEST 2MIN TIME (LST):     AVERAGE WIND SPEED (MPH): 5.2 24 HR AVG TEMP (F): 73DEPART FROM NORMAL:  6  HEATING DEGREE DAYS:  0 COOLING DEGREE DAYS:  8 LATEST DAY MAX TEMP (0700-1900 LST):86  LATEST NIGHT MIN TEMP(1900-0800 LST):60 HOURLY INCREMENTAL PRECIPITATION VALUES (IN):.00 0.00 0.00 0.00 0.00 0.00 0.00 0.00 0.00 0.00 0.00 0.00 0.00 0.00 0.00 0.00 0.00 0.00 0.00 0.00 0.00 0.00 0.00 0.00","SOD  ","6","","","","","","","","","","","","","","","","","","","","","","","","","0518","1922","","2009-06-02"